{"type": "FeatureCollection", "features": [{"type": "Feature", "geometry": {"type": "LineString", "coordinates": [[76.319778, 10.249946], [76.319753, 10.249956], [76.319724, 10.249954], [76.31912, 10.249784], [76.318655, 10.24966], [76.318841, 10.249175], [76.318938, 10.248764], [76.318983, 10.248624], [76.319023, 10.248531], [76.319085, 10.248439], [76.319149, 10.248359], [76.319241, 10.248268], [76.319672, 10.247882], [76.319897, 10.247729], [76.320103, 10.247556], [76.320143, 10.247514], [76.320173, 10.247472], [76.320198, 10.247429], [76.320287, 10.247216], [76.320324, 10.24717], [76.32042, 10.247083], [76.320511, 10.247004], [76.320611, 10.246926], [76.320715, 10.246856], [76.320833, 10.246742], [76.321005, 10.246526], [76.321225, 10.24618], [76.321254, 10.246135], [76.321437, 10.245824], [76.321676, 10.245436], [76.321772, 10.245296], [76.321922, 10.245143], [76.322153, 10.244926], [76.322258, 10.244768], [76.322357, 10.244665], [76.322468, 10.244538], [76.322569, 10.244422], [76.322655, 10.244296], [76.322716, 10.244185], [76.322733, 10.244168], [76.322807, 10.243968], [76.322845, 10.243889], [76.32291, 10.243807], [76.32318, 10.243541], [76.323424, 10.243205], [76.323609, 10.242984], [76.323828, 10.2427], [76.323929, 10.242559], [76.324018, 10.242381], [76.324076, 10.242231], [76.324151, 10.242034], [76.324191, 10.241907], [76.32425, 10.241785], [76.324313, 10.241695], [76.324342, 10.241652], [76.324457, 10.241498], [76.324959, 10.24093], [76.325514, 10.240341], [76.325688, 10.240093], [76.325774, 10.239932], [76.325885, 10.239702], [76.325908, 10.239655], [76.325978, 10.239513], [76.326036, 10.239433], [76.326173, 10.239295], [76.326246, 10.239212], [76.326525, 10.238897], [76.326685, 10.238658], [76.326767, 10.238535], [76.327185, 10.238695], [76.327365, 10.238721], [76.327391, 10.238724], [76.327457, 10.238734], [76.32789, 10.238797], [76.327953, 10.23882], [76.328247, 10.238927], [76.328414, 10.238967], [76.328457, 10.238981], [76.329376, 10.239238], [76.32983, 10.23937], [76.330372, 10.239531], [76.330491, 10.239614], [76.330774, 10.239773], [76.331475, 10.240267], [76.332177, 10.240769], [76.332533, 10.240925], [76.332881, 10.241035], [76.333185, 10.241102], [76.333102, 10.24163], [76.333001, 10.242019], [76.332906, 10.2424], [76.332831, 10.242793], [76.332772, 10.243069], [76.332875, 10.243114], [76.33299, 10.243183], [76.333228, 10.243284], [76.333268, 10.243395], [76.333252, 10.244371], [76.33333, 10.244533], [76.333368, 10.244576], [76.333606, 10.244844], [76.333566, 10.245159], [76.333355, 10.24586], [76.333252, 10.246203], [76.333241, 10.246945], [76.333145, 10.247433], [76.33315, 10.24747], [76.333201, 10.247845], [76.333419, 10.248185], [76.333314, 10.249149], [76.333288, 10.249821], [76.333266, 10.25041], [76.333265, 10.250437], [76.33326, 10.251132], [76.333338, 10.251606], [76.333663, 10.252084], [76.333772, 10.252245], [76.333917, 10.252596], [76.333948, 10.252957], [76.333982, 10.253345], [76.333997, 10.253482], [76.334008, 10.253571], [76.334023, 10.253704], [76.334069, 10.2541], [76.334094, 10.25432], [76.334427, 10.254824], [76.334961, 10.255623], [76.335085, 10.255823], [76.335178, 10.255972], [76.335436, 10.256394], [76.335672, 10.256631], [76.335781, 10.256703], [76.336098, 10.256911], [76.337825, 10.258315], [76.337939, 10.25842], [76.338329, 10.25878], [76.338787, 10.25938], [76.338834, 10.259443], [76.339267, 10.26001], [76.3395, 10.260316], [76.340271, 10.261324], [76.340959, 10.262243], [76.341153, 10.262501], [76.341623, 10.262971], [76.342081, 10.263341], [76.342151, 10.263384], [76.342588, 10.263654], [76.342604, 10.263652], [76.343522, 10.263557], [76.343877, 10.26359], [76.344379, 10.263636], [76.344748, 10.263669], [76.345188, 10.263707], [76.345809, 10.263762], [76.346268, 10.263818], [76.346436, 10.26387], [76.346848, 10.2641], [76.347206, 10.264194], [76.34728, 10.264258], [76.347297, 10.264355], [76.347251, 10.264909], [76.347265, 10.265026], [76.347272, 10.265083], [76.3473, 10.265129], [76.34735, 10.265157], [76.347409, 10.265165], [76.34783, 10.265129], [76.348226, 10.265034], [76.348607, 10.264936], [76.348703, 10.264959], [76.348824, 10.264987], [76.349058, 10.265098], [76.349143, 10.265155], [76.349211, 10.265221], [76.349337, 10.265369], [76.349451, 10.265602], [76.349513, 10.265807], [76.349608, 10.266551], [76.349625, 10.26678], [76.34966, 10.26718], [76.349648, 10.267383], [76.349569, 10.267554], [76.349301, 10.267899], [76.349273, 10.26794], [76.349244, 10.267972], [76.349222, 10.267997], [76.349206, 10.268025], [76.349191, 10.26806], [76.349169, 10.26816], [76.349158, 10.268251], [76.349154, 10.268329], [76.349128, 10.26836], [76.34882, 10.268817], [76.348597, 10.269145], [76.34823, 10.26999], [76.347983, 10.270611], [76.347653, 10.271432], [76.347699, 10.271471], [76.34769, 10.271494], [76.347676, 10.271527], [76.347667, 10.27155], [76.347658, 10.271572], [76.347639, 10.271621], [76.347628, 10.271647], [76.347609, 10.271694], [76.347581, 10.271765], [76.34756, 10.271817], [76.347547, 10.271849], [76.347524, 10.271909], [76.347498, 10.271979], [76.347475, 10.272041], [76.347432, 10.272158], [76.347402, 10.272239], [76.34737, 10.272324], [76.347327, 10.272426], [76.347297, 10.272497], [76.347261, 10.272581], [76.347215, 10.272691], [76.347148, 10.272847], [76.347103, 10.272954], [76.347077, 10.273016], [76.34694, 10.273285], [76.346773, 10.273567], [76.346604, 10.273824], [76.34642, 10.274067], [76.346269, 10.274255], [76.345924, 10.274689], [76.345687, 10.274984], [76.34501, 10.27583], [76.344855, 10.276046], [76.344679, 10.276304], [76.344542, 10.276554], [76.344399, 10.276854], [76.344286, 10.277143], [76.344176, 10.277478], [76.344111, 10.277757], [76.344062, 10.278056], [76.344031, 10.278341], [76.344029, 10.280057], [76.344024, 10.280504], [76.344009, 10.280713], [76.343985, 10.280937], [76.343941, 10.281226], [76.343873, 10.281518], [76.343819, 10.281733], [76.343746, 10.281972], [76.34366, 10.282222], [76.343534, 10.282522], [76.34323, 10.283142], [76.343041, 10.283559], [76.342959, 10.283739], [76.342871, 10.283934], [76.342992, 10.283967], [76.343054, 10.283998], [76.344277, 10.284744], [76.34435, 10.284789], [76.344538, 10.284886], [76.344761, 10.284935], [76.345199, 10.285019], [76.345521, 10.285109], [76.345679, 10.285163], [76.345828, 10.285239], [76.346587, 10.285786], [76.346918, 10.285973], [76.347084, 10.286057], [76.347165, 10.286109], [76.347231, 10.286162], [76.347339, 10.286308], [76.348363, 10.287694], [76.348411, 10.287764], [76.348998, 10.289098], [76.349508, 10.290774], [76.349525, 10.290892], [76.349528, 10.291024], [76.34951, 10.291258], [76.349516, 10.29235], [76.349509, 10.292435], [76.349501, 10.292546], [76.349528, 10.29264], [76.349568, 10.292708], [76.349609, 10.292734], [76.349689, 10.292744], [76.349804, 10.292731], [76.350388, 10.292712], [76.350508, 10.292731], [76.350601, 10.292769], [76.350668, 10.29283], [76.350708, 10.29289], [76.351028, 10.29395], [76.35105, 10.293989], [76.351078, 10.294026], [76.351119, 10.294046], [76.351166, 10.294061], [76.351802, 10.294034], [76.352112, 10.294021], [76.35215, 10.29402], [76.352205, 10.294004], [76.352224, 10.293992], [76.352246, 10.293972], [76.352282, 10.293927], [76.352306, 10.293887], [76.352329, 10.293851], [76.352357, 10.293808], [76.352392, 10.293755], [76.352426, 10.293726], [76.352466, 10.293707], [76.35251, 10.293695], [76.352696, 10.293662], [76.352821, 10.29365], [76.352951, 10.293628], [76.353184, 10.293541], [76.353395, 10.293461], [76.353697, 10.293376], [76.354135, 10.293299], [76.354327, 10.293283], [76.354632, 10.293257], [76.354785, 10.293235], [76.355374, 10.293142], [76.35568, 10.293095], [76.355731, 10.293103], [76.355757, 10.293111], [76.355783, 10.293131], [76.355809, 10.293158], [76.355847, 10.293263], [76.355867, 10.293385], [76.356034, 10.294399], [76.356055, 10.294434], [76.356075, 10.294455], [76.356101, 10.294481], [76.356131, 10.294497], [76.356147, 10.294502], [76.356268, 10.294491], [76.356635, 10.294453], [76.357017, 10.294442], [76.35724, 10.294453], [76.35757, 10.294491], [76.35799, 10.294549], [76.358187, 10.294569], [76.358225, 10.294584], [76.35831, 10.294624], [76.358394, 10.294656], [76.35849, 10.294675], [76.358583, 10.294685], [76.359037, 10.294721], [76.359256, 10.294732], [76.359814, 10.294723], [76.359974, 10.294722], [76.36007, 10.294721], [76.360817, 10.294685], [76.361064, 10.294692], [76.361139, 10.294708], [76.361196, 10.294733], [76.361231, 10.294774], [76.361255, 10.294816], [76.362306, 10.294882], [76.362354, 10.294886], [76.362369, 10.294886], [76.362692, 10.294913], [76.362817, 10.294931], [76.363346, 10.294948], [76.363955, 10.294945], [76.364505, 10.294906], [76.36462, 10.294702], [76.364714, 10.294306], [76.364838, 10.294172], [76.365103, 10.294093], [76.365471, 10.294111], [76.366061, 10.294087], [76.366211, 10.294077], [76.366852, 10.29403], [76.367386, 10.293959], [76.367573, 10.293869], [76.367622, 10.293766], [76.367691, 10.293618], [76.367761, 10.293497], [76.368343, 10.293388], [76.368565, 10.293325], [76.368917, 10.293224], [76.369314, 10.293093], [76.369371, 10.292976], [76.369352, 10.292712], [76.369352, 10.292507], [76.36948, 10.292383], [76.370017, 10.29215], [76.370242, 10.292185], [76.37072, 10.29205], [76.37081, 10.292004], [76.37109, 10.29186], [76.371534, 10.291853], [76.37176, 10.291849], [76.372069, 10.291828], [76.372433, 10.291655], [76.373077, 10.291439], [76.373164, 10.291414], [76.37341, 10.291345], [76.373499, 10.291348], [76.373761, 10.291356], [76.374233, 10.291451], [76.37484, 10.291467], [76.375124, 10.291543], [76.37551, 10.291673], [76.375695, 10.291686], [76.37577, 10.291676], [76.377125, 10.291718], [76.378147, 10.291689], [76.378541, 10.291649], [76.379221, 10.291761], [76.379252, 10.291766], [76.379598, 10.292218], [76.379677, 10.292332], [76.37987, 10.292509], [76.380097, 10.292565], [76.380569, 10.292464], [76.380912, 10.292436], [76.38147, 10.292399], [76.381601, 10.292467], [76.381786, 10.292702], [76.381907, 10.292734], [76.382213, 10.292702], [76.382602, 10.292742], [76.383064, 10.292986], [76.383205, 10.293061], [76.383439, 10.293114], [76.383903, 10.293157], [76.38493, 10.293513], [76.385319, 10.29362], [76.385614, 10.293608], [76.385807, 10.293496], [76.386145, 10.293409], [76.386246, 10.293406], [76.38662, 10.293394], [76.387014, 10.293275], [76.387331, 10.293098], [76.387746, 10.292779], [76.38798, 10.292621], [76.3885, 10.292386], [76.388956, 10.292021], [76.389197, 10.291705], [76.389431, 10.291122], [76.389498, 10.290979], [76.389569, 10.290942], [76.389662, 10.290908], [76.390139, 10.290795], [76.390329, 10.290671], [76.39042, 10.290536], [76.390493, 10.290512], [76.390654, 10.290459], [76.390984, 10.29032], [76.392003, 10.289641], [76.392899, 10.289097], [76.393508, 10.28876], [76.393679, 10.28859], [76.393956, 10.288408], [76.39472, 10.287973], [76.394761, 10.288001], [76.395088, 10.28815], [76.395248, 10.288332], [76.395297, 10.288387], [76.395396, 10.288783], [76.395359, 10.28904], [76.395325, 10.289204], [76.395393, 10.289347], [76.395579, 10.289431], [76.396032, 10.289547], [76.396141, 10.289631], [76.396195, 10.289928], [76.396351, 10.290018], [76.397059, 10.289992], [76.39781, 10.289978], [76.398282, 10.290047], [76.398803, 10.290214], [76.399146, 10.290189], [76.399323, 10.290132], [76.39943, 10.290103], [76.400146, 10.289965], [76.40086, 10.28983], [76.400956, 10.289822], [76.401005, 10.289818], [76.401466, 10.289643], [76.401734, 10.289237], [76.40212, 10.288767], [76.402377, 10.288734], [76.402874, 10.28867], [76.403271, 10.288648], [76.403301, 10.288647], [76.403467, 10.288638], [76.40386, 10.28877], [76.404137, 10.288846], [76.404188, 10.288891], [76.404403, 10.289079], [76.404493, 10.289256], [76.404529, 10.289327], [76.40465, 10.289609], [76.404773, 10.289876], [76.404985, 10.290323], [76.405705, 10.289842], [76.406656, 10.288977], [76.407217, 10.28877], [76.407422, 10.288725], [76.407858, 10.288629], [76.408359, 10.288541], [76.408646, 10.2885], [76.409942, 10.28822], [76.410763, 10.288236], [76.411529, 10.288054], [76.411663, 10.288032], [76.412097, 10.287959], [76.412139, 10.28794], [76.413977, 10.287108], [76.414608, 10.286889], [76.415847, 10.286173], [76.419012, 10.285042], [76.419719, 10.284738], [76.420108, 10.284633], [76.420381, 10.284671], [76.42074, 10.285141], [76.42098, 10.285199], [76.421102, 10.285229], [76.422092, 10.285144], [76.42282, 10.285053], [76.423349, 10.2849], [76.423974, 10.284784], [76.424645, 10.284689], [76.425413, 10.284524], [76.426681, 10.283914], [76.427333, 10.2836], [76.427756, 10.283415], [76.429042, 10.283052], [76.429179, 10.283013], [76.429652, 10.282905], [76.429942, 10.282852], [76.430468, 10.282819], [76.430616, 10.28281], [76.430784, 10.282791], [76.43089, 10.282778], [76.431616, 10.282755], [76.431916, 10.282816], [76.432034, 10.282861], [76.431974, 10.283051], [76.431893, 10.284391], [76.431996, 10.284539], [76.432166, 10.284809], [76.432699, 10.284865], [76.433338, 10.284835], [76.43352, 10.285177], [76.432976, 10.286302], [76.433022, 10.286649], [76.433482, 10.287579], [76.433453, 10.288154], [76.43329, 10.288684], [76.433389, 10.289005], [76.433507, 10.28911], [76.433751, 10.289329], [76.434399, 10.289521], [76.435922, 10.290465], [76.43598, 10.290519], [76.43622, 10.290746], [76.436464, 10.290896], [76.436883, 10.290938], [76.43733, 10.290862], [76.438052, 10.290526], [76.438277, 10.290476], [76.438585, 10.290434], [76.438878, 10.290377], [76.439713, 10.290329], [76.439991, 10.290285], [76.440608, 10.29024], [76.440714, 10.290204], [76.441278, 10.290009], [76.442002, 10.289669], [76.442448, 10.289679], [76.442538, 10.289699], [76.442875, 10.289774], [76.443088, 10.289804], [76.443559, 10.289871], [76.443941, 10.290163], [76.444181, 10.290625], [76.444206, 10.290674], [76.444435, 10.291114], [76.444791, 10.292072], [76.444932, 10.292452], [76.445115, 10.29266], [76.445747, 10.292884], [76.446364, 10.292891], [76.446611, 10.292994], [76.446811, 10.293185], [76.44694, 10.293367], [76.447004, 10.293481], [76.447119, 10.293554], [76.447738, 10.293725], [76.448187, 10.2939], [76.448517, 10.293985], [76.449194, 10.294265], [76.449802, 10.29428], [76.450709, 10.293876], [76.451518, 10.294268], [76.452543, 10.294312], [76.452791, 10.294342], [76.453788, 10.294449], [76.454714, 10.294578], [76.455345, 10.294724], [76.456058, 10.294722], [76.456522, 10.294538], [76.456821, 10.294459], [76.456875, 10.294445], [76.457637, 10.294481], [76.457931, 10.294495], [76.458785, 10.294278], [76.459272, 10.294191], [76.45979, 10.294139], [76.460289, 10.294089], [76.46127, 10.293683], [76.462401, 10.293339], [76.462777, 10.29328], [76.46337, 10.293395], [76.463985, 10.293514], [76.464404, 10.293518], [76.465455, 10.293109], [76.466732, 10.292721], [76.467408, 10.292352], [76.468664, 10.292009], [76.469477, 10.29163], [76.470283, 10.291083], [76.471089, 10.290337], [76.471501, 10.289935], [76.472316, 10.289443], [76.472636, 10.289437], [76.474085, 10.289864], [76.474322, 10.289902], [76.475238, 10.289753], [76.475799, 10.289808], [76.47617, 10.289884], [76.476598, 10.289921], [76.476737, 10.289933], [76.477845, 10.290029], [76.478507, 10.290143], [76.478706, 10.290177], [76.478637, 10.29055], [76.478538, 10.290821], [76.478328, 10.291108], [76.478174, 10.291463], [76.478046, 10.291888], [76.47743, 10.293694], [76.477294, 10.293853], [76.477343, 10.293886], [76.477548, 10.294026], [76.477812, 10.294164], [76.478126, 10.294296], [76.47841, 10.294357], [76.478697, 10.294378], [76.479231, 10.294452], [76.479604, 10.294547], [76.48002, 10.294647], [76.480525, 10.29473], [76.480883, 10.294789], [76.481195, 10.294766], [76.481484, 10.294663], [76.481852, 10.294486], [76.482219, 10.294304], [76.482589, 10.294204], [76.482825, 10.294198], [76.483094, 10.294309], [76.483227, 10.294383], [76.483356, 10.294454], [76.483576, 10.294621], [76.483853, 10.294958], [76.484129, 10.295259], [76.484231, 10.295338], [76.484349, 10.295402], [76.484472, 10.295449], [76.484612, 10.295465], [76.485647, 10.295427], [76.48606, 10.295386], [76.486489, 10.295396], [76.486618, 10.295439], [76.486747, 10.295491], [76.48687, 10.295555], [76.486993, 10.295618], [76.487117, 10.295671], [76.48724, 10.295718], [76.487369, 10.295771], [76.487498, 10.295803], [76.487626, 10.295835], [76.487761, 10.295861], [76.488104, 10.295861], [76.488233, 10.295861], [76.488367, 10.295861], [76.488501, 10.29585], [76.488635, 10.29585], [76.488836, 10.29585], [76.488839, 10.296122], [76.488784, 10.29625], [76.488434, 10.296494], [76.488163, 10.296724], [76.487859, 10.296996], [76.487696, 10.29704], [76.487551, 10.297079], [76.487467, 10.297101], [76.487283, 10.297196], [76.487096, 10.297286], [76.486927, 10.297564], [76.486842, 10.297744], [76.48659, 10.298216], [76.486458, 10.29849], [76.486384, 10.298643], [76.486079, 10.29916], [76.48588, 10.299513], [76.485702, 10.299679], [76.485325, 10.299965], [76.484892, 10.300259], [76.484307, 10.30064], [76.484093, 10.300863], [76.483855, 10.30111], [76.483775, 10.30116], [76.48344, 10.301371], [76.483074, 10.301898], [76.482988, 10.301976], [76.482773, 10.302173], [76.482331, 10.30301], [76.481872, 10.303482], [76.481364, 10.304078], [76.480949, 10.304242], [76.480534, 10.304481], [76.480456, 10.304526], [76.479598, 10.305086], [76.477146, 10.305831], [76.476809, 10.305962], [76.47589, 10.306319], [76.475047, 10.306585], [76.47495, 10.306615], [76.474762, 10.306682], [76.473946, 10.306973], [76.473531, 10.307081], [76.473438, 10.307172], [76.473375, 10.307366], [76.472915, 10.30845], [76.472774, 10.308781], [76.472729, 10.308839], [76.472588, 10.309019], [76.472409, 10.309097], [76.472147, 10.309219], [76.471799, 10.309275], [76.471592, 10.309372], [76.471303, 10.309576], [76.471025, 10.309697], [76.470736, 10.309724], [76.470527, 10.30985], [76.470031, 10.310264], [76.46962, 10.310491], [76.469116, 10.310727], [76.468167, 10.310813], [76.467174, 10.310934], [76.466864, 10.311096], [76.466594, 10.311314], [76.466554, 10.311351], [76.466329, 10.311567], [76.466262, 10.311634], [76.465757, 10.31211], [76.46537, 10.312312], [76.464979, 10.312419], [76.464501, 10.312496], [76.463915, 10.312469], [76.463563, 10.312661], [76.463048, 10.312971], [76.461994, 10.313354], [76.461953, 10.313375], [76.461587, 10.313567], [76.461068, 10.313839], [76.460972, 10.31389], [76.460565, 10.314312], [76.459663, 10.31484], [76.459457, 10.315316], [76.459356, 10.315781], [76.459053, 10.315949], [76.458746, 10.316123], [76.457838, 10.31658], [76.457632, 10.316702], [76.457305, 10.316896], [76.456901, 10.317135], [76.456299, 10.317492], [76.456268, 10.317508], [76.456201, 10.317542], [76.455813, 10.317719], [76.45525, 10.317822], [76.454859, 10.317977], [76.454632, 10.318059], [76.453566, 10.318789], [76.453132, 10.319234], [76.452477, 10.319903], [76.452138, 10.320497], [76.450706, 10.321608], [76.449972, 10.322531], [76.449568, 10.322912], [76.44898, 10.323274], [76.447826, 10.323754], [76.447357, 10.324139], [76.446684, 10.324616], [76.445443, 10.325352], [76.444646, 10.325706], [76.443978, 10.326023], [76.443677, 10.326123], [76.443098, 10.326277], [76.442713, 10.326307], [76.441988, 10.326542], [76.440655, 10.32661], [76.440153, 10.32654], [76.439992, 10.326395], [76.439761, 10.326334], [76.439151, 10.326479], [76.437868, 10.32701], [76.437465, 10.327052], [76.437068, 10.327274], [76.436435, 10.327949], [76.436382, 10.327979], [76.436148, 10.328095], [76.435881, 10.328194], [76.434769, 10.32825], [76.434272, 10.328314], [76.433808, 10.328374], [76.433472, 10.328385], [76.433061, 10.328398], [76.432791, 10.328372], [76.43243, 10.328339], [76.431851, 10.328433], [76.431562, 10.328419], [76.43102, 10.328295], [76.430683, 10.328286], [76.430455, 10.328307], [76.430436, 10.328483], [76.430439, 10.328765], [76.43071, 10.329868], [76.43079, 10.330042], [76.43101, 10.330389], [76.431115, 10.330538], [76.431209, 10.330773], [76.431214, 10.330979], [76.431166, 10.33124], [76.431096, 10.331562], [76.430839, 10.332164], [76.430184, 10.332166], [76.430094, 10.332159], [76.429826, 10.332168], [76.429534, 10.332181], [76.429162, 10.33218], [76.428738, 10.332154], [76.428387, 10.332165], [76.427983, 10.332192], [76.427747, 10.332213], [76.427436, 10.332239], [76.427061, 10.332206], [76.426695, 10.332184], [76.42642, 10.332115], [76.426303, 10.332099], [76.426086, 10.332088], [76.426046, 10.332094], [76.425979, 10.332082], [76.425949, 10.332086], [76.425872, 10.332095], [76.425653, 10.332115], [76.425474, 10.332155], [76.425383, 10.332178], [76.425175, 10.332231], [76.424981, 10.332269], [76.424798, 10.33232], [76.424517, 10.332385], [76.424259, 10.332484], [76.423991, 10.332566], [76.423727, 10.332648], [76.423455, 10.33268], [76.423236, 10.332719], [76.423105, 10.332798], [76.422944, 10.332895], [76.422709, 10.33303], [76.422647, 10.333036], [76.422502, 10.333044], [76.422374, 10.333079], [76.421435, 10.333649], [76.421054, 10.334006], [76.420968, 10.334075], [76.420708, 10.334257], [76.420392, 10.33443], [76.420363, 10.334459], [76.420283, 10.334537], [76.420247, 10.334718], [76.420231, 10.334853], [76.420126, 10.335627], [76.420094, 10.335723], [76.419785, 10.336084], [76.419629, 10.336267], [76.419508, 10.336491], [76.419481, 10.336868], [76.419378, 10.336993], [76.418508, 10.337464], [76.418321, 10.337565], [76.417905, 10.337737], [76.417731, 10.337768], [76.417467, 10.337837], [76.417355, 10.337874], [76.417266, 10.33798], [76.417139, 10.338041], [76.416868, 10.33811], [76.416787, 10.338173], [76.416704, 10.338268], [76.416728, 10.33859], [76.416806, 10.338744], [76.417786, 10.34006], [76.417848, 10.34064], [76.417563, 10.341623], [76.417507, 10.341815], [76.417403, 10.342127], [76.417021, 10.342685], [76.416832, 10.342705], [76.416467, 10.342674], [76.415727, 10.342653], [76.415277, 10.342677], [76.41505, 10.342695], [76.41486, 10.3428], [76.414784, 10.342946], [76.414697, 10.343112], [76.414624, 10.343289], [76.414574, 10.343412], [76.414414, 10.343784], [76.414219, 10.343922], [76.413989, 10.344032], [76.413496, 10.344085], [76.41299, 10.344109], [76.412367, 10.344283], [76.412232, 10.344326], [76.412168, 10.344412], [76.412106, 10.344541], [76.411971, 10.344627], [76.411746, 10.344711], [76.411925, 10.344758], [76.412971, 10.345032], [76.413434, 10.345504], [76.413683, 10.345757], [76.413829, 10.345906], [76.414185, 10.346617], [76.414234, 10.346716], [76.414159, 10.347036], [76.414099, 10.347291], [76.41353, 10.348268], [76.413817, 10.348913], [76.413997, 10.349459], [76.413609, 10.350386], [76.41351, 10.350748], [76.413453, 10.350958], [76.413377, 10.351233], [76.412562, 10.352735], [76.412551, 10.352754], [76.412423, 10.352976], [76.41242, 10.35298], [76.411995, 10.353953], [76.411759, 10.354452], [76.41238, 10.356685], [76.412407, 10.356814], [76.412579, 10.357588], [76.412704, 10.358146], [76.412537, 10.358488], [76.412516, 10.358531], [76.412499, 10.358567], [76.412189, 10.359], [76.412014, 10.359299], [76.411964, 10.359378], [76.411833, 10.359587], [76.411668, 10.359811], [76.411484, 10.360061], [76.411322, 10.360277], [76.411137, 10.360526], [76.410888, 10.36079], [76.410736, 10.360967], [76.410619, 10.36113], [76.41045, 10.361424], [76.410295, 10.361756], [76.410141, 10.362033], [76.410025, 10.362262], [76.409897, 10.362331], [76.409775, 10.362373], [76.40946, 10.36246], [76.409164, 10.362545], [76.409044, 10.362594], [76.408924, 10.362676], [76.408805, 10.362777], [76.408692, 10.362891], [76.408529, 10.363048], [76.408353, 10.363231], [76.40832, 10.363265], [76.408108, 10.363481], [76.407929, 10.363634], [76.407712, 10.363818], [76.407687, 10.363839], [76.407453, 10.364023], [76.407326, 10.364119], [76.407171, 10.36424], [76.406921, 10.364448], [76.406766, 10.3646], [76.406549, 10.364836], [76.406393, 10.365003], [76.406346, 10.365054], [76.406223, 10.365177], [76.40598, 10.365401], [76.405915, 10.365457], [76.405725, 10.365621], [76.40571, 10.365633], [76.405686, 10.365653], [76.40565, 10.365683], [76.405485, 10.365818], [76.405344, 10.365911], [76.405165, 10.366002], [76.404965, 10.366087], [76.404746, 10.366166], [76.404251, 10.366341], [76.403948, 10.366463], [76.403567, 10.366618], [76.403247, 10.36673], [76.402766, 10.366921], [76.402425, 10.367055], [76.402245, 10.367124], [76.402133, 10.367167], [76.401976, 10.367224], [76.401805, 10.367286], [76.401349, 10.36745], [76.401047, 10.367558], [76.400793, 10.367662], [76.400309, 10.367877], [76.400133, 10.367955], [76.399838, 10.368075], [76.399661, 10.368143], [76.399429, 10.368232], [76.399052, 10.368403], [76.398759, 10.368558], [76.397952, 10.368984], [76.397555, 10.369191], [76.397337, 10.369302], [76.396628, 10.369665], [76.396513, 10.369725], [76.396423, 10.369762], [76.396395, 10.369773], [76.396213, 10.36983], [76.395996, 10.369895], [76.395932, 10.369914], [76.395786, 10.369967], [76.395568, 10.370022], [76.395446, 10.370047], [76.39519, 10.370087], [76.395134, 10.370096], [76.394911, 10.370129], [76.394657, 10.37015], [76.39432, 10.37017], [76.394146, 10.370197], [76.394009, 10.370232], [76.393854, 10.370286], [76.393795, 10.37031], [76.393663, 10.370363], [76.393522, 10.370433], [76.393333, 10.370523], [76.393175, 10.370596], [76.39299, 10.370666], [76.392582, 10.370797], [76.392522, 10.370822], [76.39247, 10.370843], [76.392224, 10.370949], [76.39212, 10.370985], [76.391906, 10.371058], [76.391675, 10.371169], [76.39141, 10.371299], [76.391124, 10.371451], [76.390977, 10.371532], [76.390922, 10.371561], [76.390798, 10.371625], [76.390635, 10.37171], [76.390424, 10.37184], [76.390293, 10.371909], [76.390048, 10.372018], [76.389755, 10.37212], [76.389392, 10.372233], [76.389157, 10.372335], [76.388859, 10.372455], [76.38864, 10.372554], [76.388372, 10.372678], [76.388096, 10.372842], [76.387966, 10.372914], [76.387734, 10.373], [76.387521, 10.373084], [76.387356, 10.373165], [76.387642, 10.37366], [76.387856, 10.37399], [76.387902, 10.374187], [76.388058, 10.37481], [76.38817, 10.374998], [76.388449, 10.374995], [76.388535, 10.37523], [76.38854, 10.375457], [76.388522, 10.375578], [76.388774, 10.375589], [76.389452, 10.375549], [76.389573, 10.375644], [76.389594, 10.375863], [76.389535, 10.37609], [76.389484, 10.376188], [76.389417, 10.376589], [76.389503, 10.377251], [76.389466, 10.378597], [76.389589, 10.378823], [76.389793, 10.379016], [76.39026, 10.379195], [76.390343, 10.379296], [76.390426, 10.379594], [76.390489, 10.379903]]}, "properties": {"route_type": "PI-GNN_ASTAR_REROUTE", "segment_count": 1108, "length_m": 45661.7, "is_rerouted": true, "first_segment": "ORIG-SEG-0", "last_segment": "ORIG-SEG-823"}}]}