{"type": "FeatureCollection", "features": [{"type": "Feature", "geometry": {"type": "Polygon", "coordinates": [[[76.32, 10.32], [76.35, 10.35], [76.38, 10.34], [76.4, 10.3], [76.35, 10.28], [76.32, 10.32]]]}, "properties": {"name": "Chalakudy Flood Basin", "scenario_stage": 2, "stage_label": "Cloudburst Detected", "description": "Unpredicted cloudburst \u2014 Manning n rises, depth/velocity spike", "begin_time": "2026-07-15T09:02:00+00:00", "end_time": "2026-07-15T09:03:00+00:00"}}, {"type": "Feature", "geometry": {"type": "Polygon", "coordinates": [[[76.32, 10.32], [76.35, 10.35], [76.38, 10.34], [76.4, 10.3], [76.35, 10.28], [76.32, 10.32]]]}, "properties": {"name": "Chalakudy Flood Basin", "scenario_stage": 3, "stage_label": "Cellular Failure / VDTN", "description": "Infrastructure failure \u2014 nodes switch to VDTN offline mesh", "begin_time": "2026-07-15T09:03:00+00:00", "end_time": "2026-07-15T09:04:00+00:00"}}, {"type": "Feature", "geometry": {"type": "Polygon", "coordinates": [[[76.32, 10.32], [76.35, 10.35], [76.38, 10.34], [76.4, 10.3], [76.35, 10.28], [76.32, 10.32]]]}, "properties": {"name": "Chalakudy Flood Basin", "scenario_stage": 4, "stage_label": "Hazard Confirmed Critical", "description": "PI-GNN hazard coefficient 3.08 m\u00b2/s \u2014 CRITICAL threshold breached", "begin_time": "2026-07-15T09:04:00+00:00", "end_time": "2026-07-15T09:05:00+00:00"}}, {"type": "Feature", "geometry": {"type": "Polygon", "coordinates": [[[76.32, 10.32], [76.35, 10.35], [76.38, 10.34], [76.4, 10.3], [76.35, 10.28], [76.32, 10.32]]]}, "properties": {"name": "Chalakudy Flood Basin", "scenario_stage": 5, "stage_label": "Reroute Executed", "description": "PI-GNN offline reroute manoeuvre complete \u2014 truck on safe path", "begin_time": "2026-07-15T09:05:00+00:00", "end_time": "2026-07-15T09:07:00+00:00"}}]}