{"type": "FeatureCollection", "features": [{"type": "Feature", "geometry": {"type": "Point", "coordinates": [76.333241, 10.246945]}, "properties": {"sensor_id": "Sensor-NH544-A", "segment_range": "ORIG-SEG-0 \u2192 ORIG-SEG-206", "scenario_stage": 0, "stage_label": "Pre-Event: Normal", "begin_time": "2026-07-15T09:00:00+00:00", "end_time": "2026-07-15T09:01:00+00:00", "hazard_coefficient": 0.0089, "hazard_class": "SAFE", "manning_n": 0.015, "bed_slope_S0": 0.01, "status": "MONITORING"}}, {"type": "Feature", "geometry": {"type": "Point", "coordinates": [76.335678, 10.303956]}, "properties": {"sensor_id": "Sensor-NH544-B", "segment_range": "ORIG-SEG-164 \u2192 ORIG-SEG-618", "scenario_stage": 0, "stage_label": "Pre-Event: Normal", "begin_time": "2026-07-15T09:00:00+00:00", "end_time": "2026-07-15T09:01:00+00:00", "hazard_coefficient": 0.0089, "hazard_class": "SAFE", "manning_n": 0.015, "bed_slope_S0": 0.01, "status": "MONITORING"}}, {"type": "Feature", "geometry": {"type": "Point", "coordinates": [76.333241, 10.246945]}, "properties": {"sensor_id": "Sensor-NH544-A", "segment_range": "ORIG-SEG-0 \u2192 ORIG-SEG-206", "scenario_stage": 1, "stage_label": "Fleet En-Route", "begin_time": "2026-07-15T09:01:00+00:00", "end_time": "2026-07-15T09:02:00+00:00", "hazard_coefficient": 0.0089, "hazard_class": "SAFE", "manning_n": 0.015, "bed_slope_S0": 0.01, "status": "MONITORING"}}, {"type": "Feature", "geometry": {"type": "Point", "coordinates": [76.335678, 10.303956]}, "properties": {"sensor_id": "Sensor-NH544-B", "segment_range": "ORIG-SEG-164 \u2192 ORIG-SEG-618", "scenario_stage": 1, "stage_label": "Fleet En-Route", "begin_time": "2026-07-15T09:01:00+00:00", "end_time": "2026-07-15T09:02:00+00:00", "hazard_coefficient": 0.0089, "hazard_class": "SAFE", "manning_n": 0.015, "bed_slope_S0": 0.01, "status": "MONITORING"}}, {"type": "Feature", "geometry": {"type": "Point", "coordinates": [76.333241, 10.246945]}, "properties": {"sensor_id": "Sensor-NH544-A", "segment_range": "ORIG-SEG-0 \u2192 ORIG-SEG-206", "scenario_stage": 2, "stage_label": "Cloudburst Detected", "begin_time": "2026-07-15T09:02:00+00:00", "end_time": "2026-07-15T09:03:00+00:00", "hazard_coefficient": 0.2426, "hazard_class": "SAFE", "manning_n": 0.065, "bed_slope_S0": 0.05, "status": "ACTIVE"}}, {"type": "Feature", "geometry": {"type": "Point", "coordinates": [76.335678, 10.303956]}, "properties": {"sensor_id": "Sensor-NH544-B", "segment_range": "ORIG-SEG-164 \u2192 ORIG-SEG-618", "scenario_stage": 2, "stage_label": "Cloudburst Detected", "begin_time": "2026-07-15T09:02:00+00:00", "end_time": "2026-07-15T09:03:00+00:00", "hazard_coefficient": 3.0329, "hazard_class": "CRITICAL", "manning_n": 0.065, "bed_slope_S0": 0.05, "status": "ACTIVE"}}, {"type": "Feature", "geometry": {"type": "Point", "coordinates": [76.333241, 10.246945]}, "properties": {"sensor_id": "Sensor-NH544-A", "segment_range": "ORIG-SEG-0 \u2192 ORIG-SEG-206", "scenario_stage": 3, "stage_label": "Cellular Failure / VDTN", "begin_time": "2026-07-15T09:03:00+00:00", "end_time": "2026-07-15T09:04:00+00:00", "hazard_coefficient": 0.2426, "hazard_class": "SAFE", "manning_n": 0.065, "bed_slope_S0": 0.05, "status": "ACTIVE"}}, {"type": "Feature", "geometry": {"type": "Point", "coordinates": [76.335678, 10.303956]}, "properties": {"sensor_id": "Sensor-NH544-B", "segment_range": "ORIG-SEG-164 \u2192 ORIG-SEG-618", "scenario_stage": 3, "stage_label": "Cellular Failure / VDTN", "begin_time": "2026-07-15T09:03:00+00:00", "end_time": "2026-07-15T09:04:00+00:00", "hazard_coefficient": 3.0329, "hazard_class": "CRITICAL", "manning_n": 0.065, "bed_slope_S0": 0.05, "status": "ACTIVE"}}, {"type": "Feature", "geometry": {"type": "Point", "coordinates": [76.333241, 10.246945]}, "properties": {"sensor_id": "Sensor-NH544-A", "segment_range": "ORIG-SEG-0 \u2192 ORIG-SEG-206", "scenario_stage": 4, "stage_label": "Hazard Confirmed Critical", "begin_time": "2026-07-15T09:04:00+00:00", "end_time": "2026-07-15T09:05:00+00:00", "hazard_coefficient": 0.2426, "hazard_class": "SAFE", "manning_n": 0.065, "bed_slope_S0": 0.05, "status": "ACTIVE"}}, {"type": "Feature", "geometry": {"type": "Point", "coordinates": [76.335678, 10.303956]}, "properties": {"sensor_id": "Sensor-NH544-B", "segment_range": "ORIG-SEG-164 \u2192 ORIG-SEG-618", "scenario_stage": 4, "stage_label": "Hazard Confirmed Critical", "begin_time": "2026-07-15T09:04:00+00:00", "end_time": "2026-07-15T09:05:00+00:00", "hazard_coefficient": 3.0329, "hazard_class": "CRITICAL", "manning_n": 0.065, "bed_slope_S0": 0.05, "status": "ACTIVE"}}, {"type": "Feature", "geometry": {"type": "Point", "coordinates": [76.333241, 10.246945]}, "properties": {"sensor_id": "Sensor-NH544-A", "segment_range": "ORIG-SEG-0 \u2192 ORIG-SEG-206", "scenario_stage": 5, "stage_label": "Reroute Executed", "begin_time": "2026-07-15T09:05:00+00:00", "end_time": "2026-07-15T09:07:00+00:00", "hazard_coefficient": 0.0089, "hazard_class": "SAFE", "manning_n": 0.015, "bed_slope_S0": 0.01, "status": "ACTIVE"}}, {"type": "Feature", "geometry": {"type": "Point", "coordinates": [76.335678, 10.303956]}, "properties": {"sensor_id": "Sensor-NH544-B", "segment_range": "ORIG-SEG-164 \u2192 ORIG-SEG-618", "scenario_stage": 5, "stage_label": "Reroute Executed", "begin_time": "2026-07-15T09:05:00+00:00", "end_time": "2026-07-15T09:07:00+00:00", "hazard_coefficient": 0.1114, "hazard_class": "SAFE", "manning_n": 0.015, "bed_slope_S0": 0.01, "status": "ACTIVE"}}]}