{"type": "FeatureCollection", "features": [{"type": "Feature", "geometry": {"type": "Point", "coordinates": [76.319778, 10.249946]}, "properties": {"vehicle_id": "FMCG-Truck-01", "vehicle_type": "FMCG Logistics Truck", "network_mode": "LTE/5G", "scenario_stage": 0, "stage_label": "Pre-Event: Normal", "begin_time": "2026-07-15T09:00:00+00:00", "end_time": "2026-07-15T09:00:03+00:00"}}, {"type": "Feature", "geometry": {"type": "Point", "coordinates": [76.319724, 10.249954]}, "properties": {"vehicle_id": "FMCG-Truck-01", "vehicle_type": "FMCG Logistics Truck", "network_mode": "LTE/5G", "scenario_stage": 0, "stage_label": "Pre-Event: Normal", "begin_time": "2026-07-15T09:00:03.157895+00:00", "end_time": "2026-07-15T09:00:06.157895+00:00"}}, {"type": "Feature", "geometry": {"type": "Point", "coordinates": [76.318655, 10.24966]}, "properties": {"vehicle_id": "FMCG-Truck-01", "vehicle_type": "FMCG Logistics Truck", "network_mode": "LTE/5G", "scenario_stage": 0, "stage_label": "Pre-Event: Normal", "begin_time": "2026-07-15T09:00:06.315789+00:00", "end_time": "2026-07-15T09:00:09.315789+00:00"}}, {"type": "Feature", "geometry": {"type": "Point", "coordinates": [76.318938, 10.248764]}, "properties": {"vehicle_id": "FMCG-Truck-01", "vehicle_type": "FMCG Logistics Truck", "network_mode": "LTE/5G", "scenario_stage": 0, "stage_label": "Pre-Event: Normal", "begin_time": "2026-07-15T09:00:09.473684+00:00", "end_time": "2026-07-15T09:00:12.473684+00:00"}}, {"type": "Feature", "geometry": {"type": "Point", "coordinates": [76.319023, 10.248531]}, "properties": {"vehicle_id": "FMCG-Truck-01", "vehicle_type": "FMCG Logistics Truck", "network_mode": "LTE/5G", "scenario_stage": 0, "stage_label": "Pre-Event: Normal", "begin_time": "2026-07-15T09:00:12.631579+00:00", "end_time": "2026-07-15T09:00:15.631579+00:00"}}, {"type": "Feature", "geometry": {"type": "Point", "coordinates": [76.319149, 10.248359]}, "properties": {"vehicle_id": "FMCG-Truck-01", "vehicle_type": "FMCG Logistics Truck", "network_mode": "LTE/5G", "scenario_stage": 0, "stage_label": "Pre-Event: Normal", "begin_time": "2026-07-15T09:00:15.789474+00:00", "end_time": "2026-07-15T09:00:18.789474+00:00"}}, {"type": "Feature", "geometry": {"type": "Point", "coordinates": [76.319672, 10.247882]}, "properties": {"vehicle_id": "FMCG-Truck-01", "vehicle_type": "FMCG Logistics Truck", "network_mode": "LTE/5G", "scenario_stage": 0, "stage_label": "Pre-Event: Normal", "begin_time": "2026-07-15T09:00:18.947368+00:00", "end_time": "2026-07-15T09:00:21.947368+00:00"}}, {"type": "Feature", "geometry": {"type": "Point", "coordinates": [76.320143, 10.247514]}, "properties": {"vehicle_id": "FMCG-Truck-01", "vehicle_type": "FMCG Logistics Truck", "network_mode": "LTE/5G", "scenario_stage": 0, "stage_label": "Pre-Event: Normal", "begin_time": "2026-07-15T09:00:22.105263+00:00", "end_time": "2026-07-15T09:00:25.105263+00:00"}}, {"type": "Feature", "geometry": {"type": "Point", "coordinates": [76.320198, 10.247429]}, "properties": {"vehicle_id": "FMCG-Truck-01", "vehicle_type": "FMCG Logistics Truck", "network_mode": "LTE/5G", "scenario_stage": 0, "stage_label": "Pre-Event: Normal", "begin_time": "2026-07-15T09:00:25.263158+00:00", "end_time": "2026-07-15T09:00:28.263158+00:00"}}, {"type": "Feature", "geometry": {"type": "Point", "coordinates": [76.320324, 10.24717]}, "properties": {"vehicle_id": "FMCG-Truck-01", "vehicle_type": "FMCG Logistics Truck", "network_mode": "LTE/5G", "scenario_stage": 0, "stage_label": "Pre-Event: Normal", "begin_time": "2026-07-15T09:00:28.421053+00:00", "end_time": "2026-07-15T09:00:31.421053+00:00"}}, {"type": "Feature", "geometry": {"type": "Point", "coordinates": [76.320511, 10.247004]}, "properties": {"vehicle_id": "FMCG-Truck-01", "vehicle_type": "FMCG Logistics Truck", "network_mode": "LTE/5G", "scenario_stage": 0, "stage_label": "Pre-Event: Normal", "begin_time": "2026-07-15T09:00:31.578947+00:00", "end_time": "2026-07-15T09:00:34.578947+00:00"}}, {"type": "Feature", "geometry": {"type": "Point", "coordinates": [76.320715, 10.246856]}, "properties": {"vehicle_id": "FMCG-Truck-01", "vehicle_type": "FMCG Logistics Truck", "network_mode": "LTE/5G", "scenario_stage": 0, "stage_label": "Pre-Event: Normal", "begin_time": "2026-07-15T09:00:34.736842+00:00", "end_time": "2026-07-15T09:00:37.736842+00:00"}}, {"type": "Feature", "geometry": {"type": "Point", "coordinates": [76.321005, 10.246526]}, "properties": {"vehicle_id": "FMCG-Truck-01", "vehicle_type": "FMCG Logistics Truck", "network_mode": "LTE/5G", "scenario_stage": 0, "stage_label": "Pre-Event: Normal", "begin_time": "2026-07-15T09:00:37.894737+00:00", "end_time": "2026-07-15T09:00:40.894737+00:00"}}, {"type": "Feature", "geometry": {"type": "Point", "coordinates": [76.321437, 10.245824]}, "properties": {"vehicle_id": "FMCG-Truck-01", "vehicle_type": "FMCG Logistics Truck", "network_mode": "LTE/5G", "scenario_stage": 0, "stage_label": "Pre-Event: Normal", "begin_time": "2026-07-15T09:00:41.052632+00:00", "end_time": "2026-07-15T09:00:44.052632+00:00"}}, {"type": "Feature", "geometry": {"type": "Point", "coordinates": [76.321772, 10.245296]}, "properties": {"vehicle_id": "FMCG-Truck-01", "vehicle_type": "FMCG Logistics Truck", "network_mode": "LTE/5G", "scenario_stage": 0, "stage_label": "Pre-Event: Normal", "begin_time": "2026-07-15T09:00:44.210526+00:00", "end_time": "2026-07-15T09:00:47.210526+00:00"}}, {"type": "Feature", "geometry": {"type": "Point", "coordinates": [76.322153, 10.244926]}, "properties": {"vehicle_id": "FMCG-Truck-01", "vehicle_type": "FMCG Logistics Truck", "network_mode": "LTE/5G", "scenario_stage": 0, "stage_label": "Pre-Event: Normal", "begin_time": "2026-07-15T09:00:47.368421+00:00", "end_time": "2026-07-15T09:00:50.368421+00:00"}}, {"type": "Feature", "geometry": {"type": "Point", "coordinates": [76.322357, 10.244665]}, "properties": {"vehicle_id": "FMCG-Truck-01", "vehicle_type": "FMCG Logistics Truck", "network_mode": "LTE/5G", "scenario_stage": 0, "stage_label": "Pre-Event: Normal", "begin_time": "2026-07-15T09:00:50.526316+00:00", "end_time": "2026-07-15T09:00:53.526316+00:00"}}, {"type": "Feature", "geometry": {"type": "Point", "coordinates": [76.322569, 10.244422]}, "properties": {"vehicle_id": "FMCG-Truck-01", "vehicle_type": "FMCG Logistics Truck", "network_mode": "LTE/5G", "scenario_stage": 0, "stage_label": "Pre-Event: Normal", "begin_time": "2026-07-15T09:00:53.684211+00:00", "end_time": "2026-07-15T09:00:56.684211+00:00"}}, {"type": "Feature", "geometry": {"type": "Point", "coordinates": [76.322716, 10.244185]}, "properties": {"vehicle_id": "FMCG-Truck-01", "vehicle_type": "FMCG Logistics Truck", "network_mode": "LTE/5G", "scenario_stage": 0, "stage_label": "Pre-Event: Normal", "begin_time": "2026-07-15T09:00:56.842105+00:00", "end_time": "2026-07-15T09:00:59.842105+00:00"}}, {"type": "Feature", "geometry": {"type": "Point", "coordinates": [76.322845, 10.243889]}, "properties": {"vehicle_id": "FMCG-Truck-01", "vehicle_type": "FMCG Logistics Truck", "network_mode": "LTE/5G", "scenario_stage": 0, "stage_label": "Pre-Event: Normal", "begin_time": "2026-07-15T09:01:00+00:00", "end_time": "2026-07-15T09:01:03+00:00"}}, {"type": "Feature", "geometry": {"type": "Point", "coordinates": [76.319778, 10.249946]}, "properties": {"vehicle_id": "FMCG-Truck-01", "vehicle_type": "FMCG Logistics Truck", "network_mode": "LTE/5G", "scenario_stage": 1, "stage_label": "Fleet En-Route", "begin_time": "2026-07-15T09:01:00+00:00", "end_time": "2026-07-15T09:01:03+00:00"}}, {"type": "Feature", "geometry": {"type": "Point", "coordinates": [76.319085, 10.248439]}, "properties": {"vehicle_id": "FMCG-Truck-01", "vehicle_type": "FMCG Logistics Truck", "network_mode": "LTE/5G", "scenario_stage": 1, "stage_label": "Fleet En-Route", "begin_time": "2026-07-15T09:01:03.157895+00:00", "end_time": "2026-07-15T09:01:06.157895+00:00"}}, {"type": "Feature", "geometry": {"type": "Point", "coordinates": [76.320324, 10.24717]}, "properties": {"vehicle_id": "FMCG-Truck-01", "vehicle_type": "FMCG Logistics Truck", "network_mode": "LTE/5G", "scenario_stage": 1, "stage_label": "Fleet En-Route", "begin_time": "2026-07-15T09:01:06.315789+00:00", "end_time": "2026-07-15T09:01:09.315789+00:00"}}, {"type": "Feature", "geometry": {"type": "Point", "coordinates": [76.321676, 10.245436]}, "properties": {"vehicle_id": "FMCG-Truck-01", "vehicle_type": "FMCG Logistics Truck", "network_mode": "LTE/5G", "scenario_stage": 1, "stage_label": "Fleet En-Route", "begin_time": "2026-07-15T09:01:09.473684+00:00", "end_time": "2026-07-15T09:01:12.473684+00:00"}}, {"type": "Feature", "geometry": {"type": "Point", "coordinates": [76.322733, 10.244168]}, "properties": {"vehicle_id": "FMCG-Truck-01", "vehicle_type": "FMCG Logistics Truck", "network_mode": "LTE/5G", "scenario_stage": 1, "stage_label": "Fleet En-Route", "begin_time": "2026-07-15T09:01:12.631579+00:00", "end_time": "2026-07-15T09:01:15.631579+00:00"}}, {"type": "Feature", "geometry": {"type": "Point", "coordinates": [76.324076, 10.242231]}, "properties": {"vehicle_id": "FMCG-Truck-01", "vehicle_type": "FMCG Logistics Truck", "network_mode": "LTE/5G", "scenario_stage": 1, "stage_label": "Fleet En-Route", "begin_time": "2026-07-15T09:01:15.789474+00:00", "end_time": "2026-07-15T09:01:18.789474+00:00"}}, {"type": "Feature", "geometry": {"type": "Point", "coordinates": [76.325774, 10.239932]}, "properties": {"vehicle_id": "FMCG-Truck-01", "vehicle_type": "FMCG Logistics Truck", "network_mode": "LTE/5G", "scenario_stage": 1, "stage_label": "Fleet En-Route", "begin_time": "2026-07-15T09:01:18.947368+00:00", "end_time": "2026-07-15T09:01:21.947368+00:00"}}, {"type": "Feature", "geometry": {"type": "Point", "coordinates": [76.327185, 10.238695]}, "properties": {"vehicle_id": "FMCG-Truck-01", "vehicle_type": "FMCG Logistics Truck", "network_mode": "LTE/5G", "scenario_stage": 1, "stage_label": "Fleet En-Route", "begin_time": "2026-07-15T09:01:22.105263+00:00", "end_time": "2026-07-15T09:01:25.105263+00:00"}}, {"type": "Feature", "geometry": {"type": "Point", "coordinates": [76.32983, 10.23937]}, "properties": {"vehicle_id": "FMCG-Truck-01", "vehicle_type": "FMCG Logistics Truck", "network_mode": "LTE/5G", "scenario_stage": 1, "stage_label": "Fleet En-Route", "begin_time": "2026-07-15T09:01:25.263158+00:00", "end_time": "2026-07-15T09:01:28.263158+00:00"}}, {"type": "Feature", "geometry": {"type": "Point", "coordinates": [76.333001, 10.242019]}, "properties": {"vehicle_id": "FMCG-Truck-01", "vehicle_type": "FMCG Logistics Truck", "network_mode": "LTE/5G", "scenario_stage": 1, "stage_label": "Fleet En-Route", "begin_time": "2026-07-15T09:01:28.421053+00:00", "end_time": "2026-07-15T09:01:31.421053+00:00"}}, {"type": "Feature", "geometry": {"type": "Point", "coordinates": [76.333368, 10.244576]}, "properties": {"vehicle_id": "FMCG-Truck-01", "vehicle_type": "FMCG Logistics Truck", "network_mode": "LTE/5G", "scenario_stage": 1, "stage_label": "Fleet En-Route", "begin_time": "2026-07-15T09:01:31.578947+00:00", "end_time": "2026-07-15T09:01:34.578947+00:00"}}, {"type": "Feature", "geometry": {"type": "Point", "coordinates": [76.333314, 10.249149]}, "properties": {"vehicle_id": "FMCG-Truck-01", "vehicle_type": "FMCG Logistics Truck", "network_mode": "LTE/5G", "scenario_stage": 1, "stage_label": "Fleet En-Route", "begin_time": "2026-07-15T09:01:34.736842+00:00", "end_time": "2026-07-15T09:01:37.736842+00:00"}}, {"type": "Feature", "geometry": {"type": "Point", "coordinates": [76.333982, 10.253345]}, "properties": {"vehicle_id": "FMCG-Truck-01", "vehicle_type": "FMCG Logistics Truck", "network_mode": "LTE/5G", "scenario_stage": 1, "stage_label": "Fleet En-Route", "begin_time": "2026-07-15T09:01:37.894737+00:00", "end_time": "2026-07-15T09:01:40.894737+00:00"}}, {"type": "Feature", "geometry": {"type": "Point", "coordinates": [76.335436, 10.256394]}, "properties": {"vehicle_id": "FMCG-Truck-01", "vehicle_type": "FMCG Logistics Truck", "network_mode": "LTE/5G", "scenario_stage": 1, "stage_label": "Fleet En-Route", "begin_time": "2026-07-15T09:01:41.052632+00:00", "end_time": "2026-07-15T09:01:44.052632+00:00"}}, {"type": "Feature", "geometry": {"type": "Point", "coordinates": [76.3395, 10.260316]}, "properties": {"vehicle_id": "FMCG-Truck-01", "vehicle_type": "FMCG Logistics Truck", "network_mode": "LTE/5G", "scenario_stage": 1, "stage_label": "Fleet En-Route", "begin_time": "2026-07-15T09:01:44.210526+00:00", "end_time": "2026-07-15T09:01:47.210526+00:00"}}, {"type": "Feature", "geometry": {"type": "Point", "coordinates": [76.343877, 10.26359]}, "properties": {"vehicle_id": "FMCG-Truck-01", "vehicle_type": "FMCG Logistics Truck", "network_mode": "LTE/5G", "scenario_stage": 1, "stage_label": "Fleet En-Route", "begin_time": "2026-07-15T09:01:47.368421+00:00", "end_time": "2026-07-15T09:01:50.368421+00:00"}}, {"type": "Feature", "geometry": {"type": "Point", "coordinates": [76.347297, 10.264355]}, "properties": {"vehicle_id": "FMCG-Truck-01", "vehicle_type": "FMCG Logistics Truck", "network_mode": "LTE/5G", "scenario_stage": 1, "stage_label": "Fleet En-Route", "begin_time": "2026-07-15T09:01:50.526316+00:00", "end_time": "2026-07-15T09:01:53.526316+00:00"}}, {"type": "Feature", "geometry": {"type": "Point", "coordinates": [76.348703, 10.264959]}, "properties": {"vehicle_id": "FMCG-Truck-01", "vehicle_type": "FMCG Logistics Truck", "network_mode": "LTE/5G", "scenario_stage": 1, "stage_label": "Fleet En-Route", "begin_time": "2026-07-15T09:01:53.684211+00:00", "end_time": "2026-07-15T09:01:56.684211+00:00"}}, {"type": "Feature", "geometry": {"type": "Point", "coordinates": [76.34966, 10.26718]}, "properties": {"vehicle_id": "FMCG-Truck-01", "vehicle_type": "FMCG Logistics Truck", "network_mode": "LTE/5G", "scenario_stage": 1, "stage_label": "Fleet En-Route", "begin_time": "2026-07-15T09:01:56.842105+00:00", "end_time": "2026-07-15T09:01:59.842105+00:00"}}, {"type": "Feature", "geometry": {"type": "Point", "coordinates": [76.349158, 10.268251]}, "properties": {"vehicle_id": "FMCG-Truck-01", "vehicle_type": "FMCG Logistics Truck", "network_mode": "LTE/5G", "scenario_stage": 1, "stage_label": "Fleet En-Route", "begin_time": "2026-07-15T09:02:00+00:00", "end_time": "2026-07-15T09:02:03+00:00"}}, {"type": "Feature", "geometry": {"type": "Point", "coordinates": [76.322845, 10.243889]}, "properties": {"vehicle_id": "FMCG-Truck-01", "vehicle_type": "FMCG Logistics Truck", "network_mode": "LTE/5G", "scenario_stage": 2, "stage_label": "Cloudburst Detected", "begin_time": "2026-07-15T09:02:00+00:00", "end_time": "2026-07-15T09:02:03+00:00"}}, {"type": "Feature", "geometry": {"type": "Point", "coordinates": [76.324018, 10.242381]}, "properties": {"vehicle_id": "FMCG-Truck-01", "vehicle_type": "FMCG Logistics Truck", "network_mode": "LTE/5G", "scenario_stage": 2, "stage_label": "Cloudburst Detected", "begin_time": "2026-07-15T09:02:03.157895+00:00", "end_time": "2026-07-15T09:02:06.157895+00:00"}}, {"type": "Feature", "geometry": {"type": "Point", "coordinates": [76.324959, 10.24093]}, "properties": {"vehicle_id": "FMCG-Truck-01", "vehicle_type": "FMCG Logistics Truck", "network_mode": "LTE/5G", "scenario_stage": 2, "stage_label": "Cloudburst Detected", "begin_time": "2026-07-15T09:02:06.315789+00:00", "end_time": "2026-07-15T09:02:09.315789+00:00"}}, {"type": "Feature", "geometry": {"type": "Point", "coordinates": [76.326173, 10.239295]}, "properties": {"vehicle_id": "FMCG-Truck-01", "vehicle_type": "FMCG Logistics Truck", "network_mode": "LTE/5G", "scenario_stage": 2, "stage_label": "Cloudburst Detected", "begin_time": "2026-07-15T09:02:09.473684+00:00", "end_time": "2026-07-15T09:02:12.473684+00:00"}}, {"type": "Feature", "geometry": {"type": "Point", "coordinates": [76.327457, 10.238734]}, "properties": {"vehicle_id": "FMCG-Truck-01", "vehicle_type": "FMCG Logistics Truck", "network_mode": "LTE/5G", "scenario_stage": 2, "stage_label": "Cloudburst Detected", "begin_time": "2026-07-15T09:02:12.631579+00:00", "end_time": "2026-07-15T09:02:15.631579+00:00"}}, {"type": "Feature", "geometry": {"type": "Point", "coordinates": [76.32983, 10.23937]}, "properties": {"vehicle_id": "FMCG-Truck-01", "vehicle_type": "FMCG Logistics Truck", "network_mode": "LTE/5G", "scenario_stage": 2, "stage_label": "Cloudburst Detected", "begin_time": "2026-07-15T09:02:15.789474+00:00", "end_time": "2026-07-15T09:02:18.789474+00:00"}}, {"type": "Feature", "geometry": {"type": "Point", "coordinates": [76.333185, 10.241102]}, "properties": {"vehicle_id": "FMCG-Truck-01", "vehicle_type": "FMCG Logistics Truck", "network_mode": "LTE/5G", "scenario_stage": 2, "stage_label": "Cloudburst Detected", "begin_time": "2026-07-15T09:02:18.947368+00:00", "end_time": "2026-07-15T09:02:21.947368+00:00"}}, {"type": "Feature", "geometry": {"type": "Point", "coordinates": [76.333228, 10.243284]}, "properties": {"vehicle_id": "FMCG-Truck-01", "vehicle_type": "FMCG Logistics Truck", "network_mode": "LTE/5G", "scenario_stage": 2, "stage_label": "Cloudburst Detected", "begin_time": "2026-07-15T09:02:22.105263+00:00", "end_time": "2026-07-15T09:02:25.105263+00:00"}}, {"type": "Feature", "geometry": {"type": "Point", "coordinates": [76.333252, 10.246203]}, "properties": {"vehicle_id": "FMCG-Truck-01", "vehicle_type": "FMCG Logistics Truck", "network_mode": "LTE/5G", "scenario_stage": 2, "stage_label": "Cloudburst Detected", "begin_time": "2026-07-15T09:02:25.263158+00:00", "end_time": "2026-07-15T09:02:28.263158+00:00"}}, {"type": "Feature", "geometry": {"type": "Point", "coordinates": [76.333266, 10.25041]}, "properties": {"vehicle_id": "FMCG-Truck-01", "vehicle_type": "FMCG Logistics Truck", "network_mode": "LTE/5G", "scenario_stage": 2, "stage_label": "Cloudburst Detected", "begin_time": "2026-07-15T09:02:28.421053+00:00", "end_time": "2026-07-15T09:02:31.421053+00:00"}}, {"type": "Feature", "geometry": {"type": "Point", "coordinates": [76.333948, 10.252957]}, "properties": {"vehicle_id": "FMCG-Truck-01", "vehicle_type": "FMCG Logistics Truck", "network_mode": "LTE/5G", "scenario_stage": 2, "stage_label": "Cloudburst Detected", "begin_time": "2026-07-15T09:02:31.578947+00:00", "end_time": "2026-07-15T09:02:34.578947+00:00"}}, {"type": "Feature", "geometry": {"type": "Point", "coordinates": [76.334961, 10.255623]}, "properties": {"vehicle_id": "FMCG-Truck-01", "vehicle_type": "FMCG Logistics Truck", "network_mode": "LTE/5G", "scenario_stage": 2, "stage_label": "Cloudburst Detected", "begin_time": "2026-07-15T09:02:34.736842+00:00", "end_time": "2026-07-15T09:02:37.736842+00:00"}}, {"type": "Feature", "geometry": {"type": "Point", "coordinates": [76.337939, 10.25842]}, "properties": {"vehicle_id": "FMCG-Truck-01", "vehicle_type": "FMCG Logistics Truck", "network_mode": "LTE/5G", "scenario_stage": 2, "stage_label": "Cloudburst Detected", "begin_time": "2026-07-15T09:02:37.894737+00:00", "end_time": "2026-07-15T09:02:40.894737+00:00"}}, {"type": "Feature", "geometry": {"type": "Point", "coordinates": [76.341153, 10.262501]}, "properties": {"vehicle_id": "FMCG-Truck-01", "vehicle_type": "FMCG Logistics Truck", "network_mode": "LTE/5G", "scenario_stage": 2, "stage_label": "Cloudburst Detected", "begin_time": "2026-07-15T09:02:41.052632+00:00", "end_time": "2026-07-15T09:02:44.052632+00:00"}}, {"type": "Feature", "geometry": {"type": "Point", "coordinates": [76.344379, 10.263636]}, "properties": {"vehicle_id": "FMCG-Truck-01", "vehicle_type": "FMCG Logistics Truck", "network_mode": "LTE/5G", "scenario_stage": 2, "stage_label": "Cloudburst Detected", "begin_time": "2026-07-15T09:02:44.210526+00:00", "end_time": "2026-07-15T09:02:47.210526+00:00"}}, {"type": "Feature", "geometry": {"type": "Point", "coordinates": [76.347206, 10.264194]}, "properties": {"vehicle_id": "FMCG-Truck-01", "vehicle_type": "FMCG Logistics Truck", "network_mode": "LTE/5G", "scenario_stage": 2, "stage_label": "Cloudburst Detected", "begin_time": "2026-07-15T09:02:47.368421+00:00", "end_time": "2026-07-15T09:02:50.368421+00:00"}}, {"type": "Feature", "geometry": {"type": "Point", "coordinates": [76.347409, 10.265165]}, "properties": {"vehicle_id": "FMCG-Truck-01", "vehicle_type": "FMCG Logistics Truck", "network_mode": "LTE/5G", "scenario_stage": 2, "stage_label": "Cloudburst Detected", "begin_time": "2026-07-15T09:02:50.526316+00:00", "end_time": "2026-07-15T09:02:53.526316+00:00"}}, {"type": "Feature", "geometry": {"type": "Point", "coordinates": [76.349211, 10.265221]}, "properties": {"vehicle_id": "FMCG-Truck-01", "vehicle_type": "FMCG Logistics Truck", "network_mode": "LTE/5G", "scenario_stage": 2, "stage_label": "Cloudburst Detected", "begin_time": "2026-07-15T09:02:53.684211+00:00", "end_time": "2026-07-15T09:02:56.684211+00:00"}}, {"type": "Feature", "geometry": {"type": "Point", "coordinates": [76.349569, 10.267554]}, "properties": {"vehicle_id": "FMCG-Truck-01", "vehicle_type": "FMCG Logistics Truck", "network_mode": "LTE/5G", "scenario_stage": 2, "stage_label": "Cloudburst Detected", "begin_time": "2026-07-15T09:02:56.842105+00:00", "end_time": "2026-07-15T09:02:59.842105+00:00"}}, {"type": "Feature", "geometry": {"type": "Point", "coordinates": [76.349158, 10.268251]}, "properties": {"vehicle_id": "FMCG-Truck-01", "vehicle_type": "FMCG Logistics Truck", "network_mode": "LTE/5G", "scenario_stage": 2, "stage_label": "Cloudburst Detected", "begin_time": "2026-07-15T09:03:00+00:00", "end_time": "2026-07-15T09:03:03+00:00"}}, {"type": "Feature", "geometry": {"type": "Point", "coordinates": [76.330774, 10.239773]}, "properties": {"vehicle_id": "FMCG-Truck-01", "vehicle_type": "FMCG Logistics Truck", "network_mode": "VDTN", "scenario_stage": 3, "stage_label": "Cellular Failure / VDTN", "begin_time": "2026-07-15T09:03:00+00:00", "end_time": "2026-07-15T09:03:03+00:00"}}, {"type": "Feature", "geometry": {"type": "Point", "coordinates": [76.333185, 10.241102]}, "properties": {"vehicle_id": "FMCG-Truck-01", "vehicle_type": "FMCG Logistics Truck", "network_mode": "VDTN", "scenario_stage": 3, "stage_label": "Cellular Failure / VDTN", "begin_time": "2026-07-15T09:03:03.157895+00:00", "end_time": "2026-07-15T09:03:06.157895+00:00"}}, {"type": "Feature", "geometry": {"type": "Point", "coordinates": [76.332875, 10.243114]}, "properties": {"vehicle_id": "FMCG-Truck-01", "vehicle_type": "FMCG Logistics Truck", "network_mode": "VDTN", "scenario_stage": 3, "stage_label": "Cellular Failure / VDTN", "begin_time": "2026-07-15T09:03:06.315789+00:00", "end_time": "2026-07-15T09:03:09.315789+00:00"}}, {"type": "Feature", "geometry": {"type": "Point", "coordinates": [76.33333, 10.244533]}, "properties": {"vehicle_id": "FMCG-Truck-01", "vehicle_type": "FMCG Logistics Truck", "network_mode": "VDTN", "scenario_stage": 3, "stage_label": "Cellular Failure / VDTN", "begin_time": "2026-07-15T09:03:09.473684+00:00", "end_time": "2026-07-15T09:03:12.473684+00:00"}}, {"type": "Feature", "geometry": {"type": "Point", "coordinates": [76.333241, 10.246945]}, "properties": {"vehicle_id": "FMCG-Truck-01", "vehicle_type": "FMCG Logistics Truck", "network_mode": "VDTN", "scenario_stage": 3, "stage_label": "Cellular Failure / VDTN", "begin_time": "2026-07-15T09:03:12.631579+00:00", "end_time": "2026-07-15T09:03:15.631579+00:00"}}, {"type": "Feature", "geometry": {"type": "Point", "coordinates": [76.333288, 10.249821]}, "properties": {"vehicle_id": "FMCG-Truck-01", "vehicle_type": "FMCG Logistics Truck", "network_mode": "VDTN", "scenario_stage": 3, "stage_label": "Cellular Failure / VDTN", "begin_time": "2026-07-15T09:03:15.789474+00:00", "end_time": "2026-07-15T09:03:18.789474+00:00"}}, {"type": "Feature", "geometry": {"type": "Point", "coordinates": [76.333663, 10.252084]}, "properties": {"vehicle_id": "FMCG-Truck-01", "vehicle_type": "FMCG Logistics Truck", "network_mode": "VDTN", "scenario_stage": 3, "stage_label": "Cellular Failure / VDTN", "begin_time": "2026-07-15T09:03:18.947368+00:00", "end_time": "2026-07-15T09:03:21.947368+00:00"}}, {"type": "Feature", "geometry": {"type": "Point", "coordinates": [76.334008, 10.253571]}, "properties": {"vehicle_id": "FMCG-Truck-01", "vehicle_type": "FMCG Logistics Truck", "network_mode": "VDTN", "scenario_stage": 3, "stage_label": "Cellular Failure / VDTN", "begin_time": "2026-07-15T09:03:22.105263+00:00", "end_time": "2026-07-15T09:03:25.105263+00:00"}}, {"type": "Feature", "geometry": {"type": "Point", "coordinates": [76.335085, 10.255823]}, "properties": {"vehicle_id": "FMCG-Truck-01", "vehicle_type": "FMCG Logistics Truck", "network_mode": "VDTN", "scenario_stage": 3, "stage_label": "Cellular Failure / VDTN", "begin_time": "2026-07-15T09:03:25.263158+00:00", "end_time": "2026-07-15T09:03:28.263158+00:00"}}, {"type": "Feature", "geometry": {"type": "Point", "coordinates": [76.336098, 10.256911]}, "properties": {"vehicle_id": "FMCG-Truck-01", "vehicle_type": "FMCG Logistics Truck", "network_mode": "VDTN", "scenario_stage": 3, "stage_label": "Cellular Failure / VDTN", "begin_time": "2026-07-15T09:03:28.421053+00:00", "end_time": "2026-07-15T09:03:31.421053+00:00"}}, {"type": "Feature", "geometry": {"type": "Point", "coordinates": [76.339267, 10.26001]}, "properties": {"vehicle_id": "FMCG-Truck-01", "vehicle_type": "FMCG Logistics Truck", "network_mode": "VDTN", "scenario_stage": 3, "stage_label": "Cellular Failure / VDTN", "begin_time": "2026-07-15T09:03:31.578947+00:00", "end_time": "2026-07-15T09:03:34.578947+00:00"}}, {"type": "Feature", "geometry": {"type": "Point", "coordinates": [76.341623, 10.262971]}, "properties": {"vehicle_id": "FMCG-Truck-01", "vehicle_type": "FMCG Logistics Truck", "network_mode": "VDTN", "scenario_stage": 3, "stage_label": "Cellular Failure / VDTN", "begin_time": "2026-07-15T09:03:34.736842+00:00", "end_time": "2026-07-15T09:03:37.736842+00:00"}}, {"type": "Feature", "geometry": {"type": "Point", "coordinates": [76.343877, 10.26359]}, "properties": {"vehicle_id": "FMCG-Truck-01", "vehicle_type": "FMCG Logistics Truck", "network_mode": "VDTN", "scenario_stage": 3, "stage_label": "Cellular Failure / VDTN", "begin_time": "2026-07-15T09:03:37.894737+00:00", "end_time": "2026-07-15T09:03:40.894737+00:00"}}, {"type": "Feature", "geometry": {"type": "Point", "coordinates": [76.346436, 10.26387]}, "properties": {"vehicle_id": "FMCG-Truck-01", "vehicle_type": "FMCG Logistics Truck", "network_mode": "VDTN", "scenario_stage": 3, "stage_label": "Cellular Failure / VDTN", "begin_time": "2026-07-15T09:03:41.052632+00:00", "end_time": "2026-07-15T09:03:44.052632+00:00"}}, {"type": "Feature", "geometry": {"type": "Point", "coordinates": [76.347251, 10.264909]}, "properties": {"vehicle_id": "FMCG-Truck-01", "vehicle_type": "FMCG Logistics Truck", "network_mode": "VDTN", "scenario_stage": 3, "stage_label": "Cellular Failure / VDTN", "begin_time": "2026-07-15T09:03:44.210526+00:00", "end_time": "2026-07-15T09:03:47.210526+00:00"}}, {"type": "Feature", "geometry": {"type": "Point", "coordinates": [76.34783, 10.265129]}, "properties": {"vehicle_id": "FMCG-Truck-01", "vehicle_type": "FMCG Logistics Truck", "network_mode": "VDTN", "scenario_stage": 3, "stage_label": "Cellular Failure / VDTN", "begin_time": "2026-07-15T09:03:47.368421+00:00", "end_time": "2026-07-15T09:03:50.368421+00:00"}}, {"type": "Feature", "geometry": {"type": "Point", "coordinates": [76.349143, 10.265155]}, "properties": {"vehicle_id": "FMCG-Truck-01", "vehicle_type": "FMCG Logistics Truck", "network_mode": "VDTN", "scenario_stage": 3, "stage_label": "Cellular Failure / VDTN", "begin_time": "2026-07-15T09:03:50.526316+00:00", "end_time": "2026-07-15T09:03:53.526316+00:00"}}, {"type": "Feature", "geometry": {"type": "Point", "coordinates": [76.349608, 10.266551]}, "properties": {"vehicle_id": "FMCG-Truck-01", "vehicle_type": "FMCG Logistics Truck", "network_mode": "VDTN", "scenario_stage": 3, "stage_label": "Cellular Failure / VDTN", "begin_time": "2026-07-15T09:03:53.684211+00:00", "end_time": "2026-07-15T09:03:56.684211+00:00"}}, {"type": "Feature", "geometry": {"type": "Point", "coordinates": [76.349273, 10.26794]}, "properties": {"vehicle_id": "FMCG-Truck-01", "vehicle_type": "FMCG Logistics Truck", "network_mode": "VDTN", "scenario_stage": 3, "stage_label": "Cellular Failure / VDTN", "begin_time": "2026-07-15T09:03:56.842105+00:00", "end_time": "2026-07-15T09:03:59.842105+00:00"}}, {"type": "Feature", "geometry": {"type": "Point", "coordinates": [76.349158, 10.268251]}, "properties": {"vehicle_id": "FMCG-Truck-01", "vehicle_type": "FMCG Logistics Truck", "network_mode": "VDTN", "scenario_stage": 3, "stage_label": "Cellular Failure / VDTN", "begin_time": "2026-07-15T09:04:00+00:00", "end_time": "2026-07-15T09:04:03+00:00"}}, {"type": "Feature", "geometry": {"type": "Point", "coordinates": [76.334069, 10.2541]}, "properties": {"vehicle_id": "FMCG-Truck-01", "vehicle_type": "FMCG Logistics Truck", "network_mode": "LTE/5G", "scenario_stage": 4, "stage_label": "Hazard Confirmed Critical", "begin_time": "2026-07-15T09:04:00+00:00", "end_time": "2026-07-15T09:04:03+00:00"}}, {"type": "Feature", "geometry": {"type": "Point", "coordinates": [76.334961, 10.255623]}, "properties": {"vehicle_id": "FMCG-Truck-01", "vehicle_type": "FMCG Logistics Truck", "network_mode": "LTE/5G", "scenario_stage": 4, "stage_label": "Hazard Confirmed Critical", "begin_time": "2026-07-15T09:04:03.157895+00:00", "end_time": "2026-07-15T09:04:06.157895+00:00"}}, {"type": "Feature", "geometry": {"type": "Point", "coordinates": [76.335436, 10.256394]}, "properties": {"vehicle_id": "FMCG-Truck-01", "vehicle_type": "FMCG Logistics Truck", "network_mode": "LTE/5G", "scenario_stage": 4, "stage_label": "Hazard Confirmed Critical", "begin_time": "2026-07-15T09:04:06.315789+00:00", "end_time": "2026-07-15T09:04:09.315789+00:00"}}, {"type": "Feature", "geometry": {"type": "Point", "coordinates": [76.337825, 10.258315]}, "properties": {"vehicle_id": "FMCG-Truck-01", "vehicle_type": "FMCG Logistics Truck", "network_mode": "LTE/5G", "scenario_stage": 4, "stage_label": "Hazard Confirmed Critical", "begin_time": "2026-07-15T09:04:09.473684+00:00", "end_time": "2026-07-15T09:04:12.473684+00:00"}}, {"type": "Feature", "geometry": {"type": "Point", "coordinates": [76.338787, 10.25938]}, "properties": {"vehicle_id": "FMCG-Truck-01", "vehicle_type": "FMCG Logistics Truck", "network_mode": "LTE/5G", "scenario_stage": 4, "stage_label": "Hazard Confirmed Critical", "begin_time": "2026-07-15T09:04:12.631579+00:00", "end_time": "2026-07-15T09:04:15.631579+00:00"}}, {"type": "Feature", "geometry": {"type": "Point", "coordinates": [76.340271, 10.261324]}, "properties": {"vehicle_id": "FMCG-Truck-01", "vehicle_type": "FMCG Logistics Truck", "network_mode": "LTE/5G", "scenario_stage": 4, "stage_label": "Hazard Confirmed Critical", "begin_time": "2026-07-15T09:04:15.789474+00:00", "end_time": "2026-07-15T09:04:18.789474+00:00"}}, {"type": "Feature", "geometry": {"type": "Point", "coordinates": [76.341623, 10.262971]}, "properties": {"vehicle_id": "FMCG-Truck-01", "vehicle_type": "FMCG Logistics Truck", "network_mode": "LTE/5G", "scenario_stage": 4, "stage_label": "Hazard Confirmed Critical", "begin_time": "2026-07-15T09:04:18.947368+00:00", "end_time": "2026-07-15T09:04:21.947368+00:00"}}, {"type": "Feature", "geometry": {"type": "Point", "coordinates": [76.342604, 10.263652]}, "properties": {"vehicle_id": "FMCG-Truck-01", "vehicle_type": "FMCG Logistics Truck", "network_mode": "LTE/5G", "scenario_stage": 4, "stage_label": "Hazard Confirmed Critical", "begin_time": "2026-07-15T09:04:22.105263+00:00", "end_time": "2026-07-15T09:04:25.105263+00:00"}}, {"type": "Feature", "geometry": {"type": "Point", "coordinates": [76.344379, 10.263636]}, "properties": {"vehicle_id": "FMCG-Truck-01", "vehicle_type": "FMCG Logistics Truck", "network_mode": "LTE/5G", "scenario_stage": 4, "stage_label": "Hazard Confirmed Critical", "begin_time": "2026-07-15T09:04:25.263158+00:00", "end_time": "2026-07-15T09:04:28.263158+00:00"}}, {"type": "Feature", "geometry": {"type": "Point", "coordinates": [76.346268, 10.263818]}, "properties": {"vehicle_id": "FMCG-Truck-01", "vehicle_type": "FMCG Logistics Truck", "network_mode": "LTE/5G", "scenario_stage": 4, "stage_label": "Hazard Confirmed Critical", "begin_time": "2026-07-15T09:04:28.421053+00:00", "end_time": "2026-07-15T09:04:31.421053+00:00"}}, {"type": "Feature", "geometry": {"type": "Point", "coordinates": [76.347206, 10.264194]}, "properties": {"vehicle_id": "FMCG-Truck-01", "vehicle_type": "FMCG Logistics Truck", "network_mode": "LTE/5G", "scenario_stage": 4, "stage_label": "Hazard Confirmed Critical", "begin_time": "2026-07-15T09:04:31.578947+00:00", "end_time": "2026-07-15T09:04:34.578947+00:00"}}, {"type": "Feature", "geometry": {"type": "Point", "coordinates": [76.347265, 10.265026]}, "properties": {"vehicle_id": "FMCG-Truck-01", "vehicle_type": "FMCG Logistics Truck", "network_mode": "LTE/5G", "scenario_stage": 4, "stage_label": "Hazard Confirmed Critical", "begin_time": "2026-07-15T09:04:34.736842+00:00", "end_time": "2026-07-15T09:04:37.736842+00:00"}}, {"type": "Feature", "geometry": {"type": "Point", "coordinates": [76.34735, 10.265157]}, "properties": {"vehicle_id": "FMCG-Truck-01", "vehicle_type": "FMCG Logistics Truck", "network_mode": "LTE/5G", "scenario_stage": 4, "stage_label": "Hazard Confirmed Critical", "begin_time": "2026-07-15T09:04:37.894737+00:00", "end_time": "2026-07-15T09:04:40.894737+00:00"}}, {"type": "Feature", "geometry": {"type": "Point", "coordinates": [76.348607, 10.264936]}, "properties": {"vehicle_id": "FMCG-Truck-01", "vehicle_type": "FMCG Logistics Truck", "network_mode": "LTE/5G", "scenario_stage": 4, "stage_label": "Hazard Confirmed Critical", "begin_time": "2026-07-15T09:04:41.052632+00:00", "end_time": "2026-07-15T09:04:44.052632+00:00"}}, {"type": "Feature", "geometry": {"type": "Point", "coordinates": [76.349058, 10.265098]}, "properties": {"vehicle_id": "FMCG-Truck-01", "vehicle_type": "FMCG Logistics Truck", "network_mode": "LTE/5G", "scenario_stage": 4, "stage_label": "Hazard Confirmed Critical", "begin_time": "2026-07-15T09:04:44.210526+00:00", "end_time": "2026-07-15T09:04:47.210526+00:00"}}, {"type": "Feature", "geometry": {"type": "Point", "coordinates": [76.349451, 10.265602]}, "properties": {"vehicle_id": "FMCG-Truck-01", "vehicle_type": "FMCG Logistics Truck", "network_mode": "LTE/5G", "scenario_stage": 4, "stage_label": "Hazard Confirmed Critical", "begin_time": "2026-07-15T09:04:47.368421+00:00", "end_time": "2026-07-15T09:04:50.368421+00:00"}}, {"type": "Feature", "geometry": {"type": "Point", "coordinates": [76.349625, 10.26678]}, "properties": {"vehicle_id": "FMCG-Truck-01", "vehicle_type": "FMCG Logistics Truck", "network_mode": "LTE/5G", "scenario_stage": 4, "stage_label": "Hazard Confirmed Critical", "begin_time": "2026-07-15T09:04:50.526316+00:00", "end_time": "2026-07-15T09:04:53.526316+00:00"}}, {"type": "Feature", "geometry": {"type": "Point", "coordinates": [76.349301, 10.267899]}, "properties": {"vehicle_id": "FMCG-Truck-01", "vehicle_type": "FMCG Logistics Truck", "network_mode": "LTE/5G", "scenario_stage": 4, "stage_label": "Hazard Confirmed Critical", "begin_time": "2026-07-15T09:04:53.684211+00:00", "end_time": "2026-07-15T09:04:56.684211+00:00"}}, {"type": "Feature", "geometry": {"type": "Point", "coordinates": [76.349222, 10.267997]}, "properties": {"vehicle_id": "FMCG-Truck-01", "vehicle_type": "FMCG Logistics Truck", "network_mode": "LTE/5G", "scenario_stage": 4, "stage_label": "Hazard Confirmed Critical", "begin_time": "2026-07-15T09:04:56.842105+00:00", "end_time": "2026-07-15T09:04:59.842105+00:00"}}, {"type": "Feature", "geometry": {"type": "Point", "coordinates": [76.349158, 10.268251]}, "properties": {"vehicle_id": "FMCG-Truck-01", "vehicle_type": "FMCG Logistics Truck", "network_mode": "LTE/5G", "scenario_stage": 4, "stage_label": "Hazard Confirmed Critical", "begin_time": "2026-07-15T09:05:00+00:00", "end_time": "2026-07-15T09:05:03+00:00"}}, {"type": "Feature", "geometry": {"type": "Point", "coordinates": [76.319778, 10.249946]}, "properties": {"vehicle_id": "FMCG-Truck-01", "vehicle_type": "FMCG Logistics Truck", "network_mode": "LTE/5G", "scenario_stage": 5, "stage_label": "Reroute Executed", "begin_time": "2026-07-15T09:05:00+00:00", "end_time": "2026-07-15T09:05:06+00:00"}}, {"type": "Feature", "geometry": {"type": "Point", "coordinates": [76.326685, 10.238658]}, "properties": {"vehicle_id": "FMCG-Truck-01", "vehicle_type": "FMCG Logistics Truck", "network_mode": "LTE/5G", "scenario_stage": 5, "stage_label": "Reroute Executed", "begin_time": "2026-07-15T09:05:06.315789+00:00", "end_time": "2026-07-15T09:05:12.315789+00:00"}}, {"type": "Feature", "geometry": {"type": "Point", "coordinates": [76.337939, 10.25842]}, "properties": {"vehicle_id": "FMCG-Truck-01", "vehicle_type": "FMCG Logistics Truck", "network_mode": "LTE/5G", "scenario_stage": 5, "stage_label": "Reroute Executed", "begin_time": "2026-07-15T09:05:12.631579+00:00", "end_time": "2026-07-15T09:05:18.631579+00:00"}}, {"type": "Feature", "geometry": {"type": "Point", "coordinates": [76.347667, 10.27155]}, "properties": {"vehicle_id": "FMCG-Truck-01", "vehicle_type": "FMCG Logistics Truck", "network_mode": "LTE/5G", "scenario_stage": 5, "stage_label": "Reroute Executed", "begin_time": "2026-07-15T09:05:18.947368+00:00", "end_time": "2026-07-15T09:05:24.947368+00:00"}}, {"type": "Feature", "geometry": {"type": "Point", "coordinates": [76.347339, 10.286308]}, "properties": {"vehicle_id": "FMCG-Truck-01", "vehicle_type": "FMCG Logistics Truck", "network_mode": "LTE/5G", "scenario_stage": 5, "stage_label": "Reroute Executed", "begin_time": "2026-07-15T09:05:25.263158+00:00", "end_time": "2026-07-15T09:05:31.263158+00:00"}}, {"type": "Feature", "geometry": {"type": "Point", "coordinates": [76.35724, 10.294453]}, "properties": {"vehicle_id": "FMCG-Truck-01", "vehicle_type": "FMCG Logistics Truck", "network_mode": "LTE/5G", "scenario_stage": 5, "stage_label": "Reroute Executed", "begin_time": "2026-07-15T09:05:31.578947+00:00", "end_time": "2026-07-15T09:05:37.578947+00:00"}}, {"type": "Feature", "geometry": {"type": "Point", "coordinates": [76.375695, 10.291686]}, "properties": {"vehicle_id": "FMCG-Truck-01", "vehicle_type": "FMCG Logistics Truck", "network_mode": "LTE/5G", "scenario_stage": 5, "stage_label": "Reroute Executed", "begin_time": "2026-07-15T09:05:37.894737+00:00", "end_time": "2026-07-15T09:05:43.894737+00:00"}}, {"type": "Feature", "geometry": {"type": "Point", "coordinates": [76.398282, 10.290047]}, "properties": {"vehicle_id": "FMCG-Truck-01", "vehicle_type": "FMCG Logistics Truck", "network_mode": "LTE/5G", "scenario_stage": 5, "stage_label": "Reroute Executed", "begin_time": "2026-07-15T09:05:44.210526+00:00", "end_time": "2026-07-15T09:05:50.210526+00:00"}}, {"type": "Feature", "geometry": {"type": "Point", "coordinates": [76.419772, 10.281063]}, "properties": {"vehicle_id": "FMCG-Truck-01", "vehicle_type": "FMCG Logistics Truck", "network_mode": "LTE/5G", "scenario_stage": 5, "stage_label": "Reroute Executed", "begin_time": "2026-07-15T09:05:50.526316+00:00", "end_time": "2026-07-15T09:05:56.526316+00:00"}}, {"type": "Feature", "geometry": {"type": "Point", "coordinates": [76.423349, 10.2849]}, "properties": {"vehicle_id": "FMCG-Truck-01", "vehicle_type": "FMCG Logistics Truck", "network_mode": "LTE/5G", "scenario_stage": 5, "stage_label": "Reroute Executed", "begin_time": "2026-07-15T09:05:56.842105+00:00", "end_time": "2026-07-15T09:06:02.842105+00:00"}}, {"type": "Feature", "geometry": {"type": "Point", "coordinates": [76.447004, 10.293481]}, "properties": {"vehicle_id": "FMCG-Truck-01", "vehicle_type": "FMCG Logistics Truck", "network_mode": "LTE/5G", "scenario_stage": 5, "stage_label": "Reroute Executed", "begin_time": "2026-07-15T09:06:03.157895+00:00", "end_time": "2026-07-15T09:06:09.157895+00:00"}}, {"type": "Feature", "geometry": {"type": "Point", "coordinates": [76.480883, 10.294789]}, "properties": {"vehicle_id": "FMCG-Truck-01", "vehicle_type": "FMCG Logistics Truck", "network_mode": "LTE/5G", "scenario_stage": 5, "stage_label": "Reroute Executed", "begin_time": "2026-07-15T09:06:09.473684+00:00", "end_time": "2026-07-15T09:06:15.473684+00:00"}}, {"type": "Feature", "geometry": {"type": "Point", "coordinates": [76.480949, 10.304242]}, "properties": {"vehicle_id": "FMCG-Truck-01", "vehicle_type": "FMCG Logistics Truck", "network_mode": "LTE/5G", "scenario_stage": 5, "stage_label": "Reroute Executed", "begin_time": "2026-07-15T09:06:15.789474+00:00", "end_time": "2026-07-15T09:06:21.789474+00:00"}}, {"type": "Feature", "geometry": {"type": "Point", "coordinates": [76.452138, 10.320497]}, "properties": {"vehicle_id": "FMCG-Truck-01", "vehicle_type": "FMCG Logistics Truck", "network_mode": "LTE/5G", "scenario_stage": 5, "stage_label": "Reroute Executed", "begin_time": "2026-07-15T09:06:22.105263+00:00", "end_time": "2026-07-15T09:06:28.105263+00:00"}}, {"type": "Feature", "geometry": {"type": "Point", "coordinates": [76.425949, 10.332086]}, "properties": {"vehicle_id": "FMCG-Truck-01", "vehicle_type": "FMCG Logistics Truck", "network_mode": "LTE/5G", "scenario_stage": 5, "stage_label": "Reroute Executed", "begin_time": "2026-07-15T09:06:28.421053+00:00", "end_time": "2026-07-15T09:06:34.421053+00:00"}}, {"type": "Feature", "geometry": {"type": "Point", "coordinates": [76.413989, 10.344032]}, "properties": {"vehicle_id": "FMCG-Truck-01", "vehicle_type": "FMCG Logistics Truck", "network_mode": "LTE/5G", "scenario_stage": 5, "stage_label": "Reroute Executed", "begin_time": "2026-07-15T09:06:34.736842+00:00", "end_time": "2026-07-15T09:06:40.736842+00:00"}}, {"type": "Feature", "geometry": {"type": "Point", "coordinates": [76.421954, 10.351955]}, "properties": {"vehicle_id": "FMCG-Truck-01", "vehicle_type": "FMCG Logistics Truck", "network_mode": "LTE/5G", "scenario_stage": 5, "stage_label": "Reroute Executed", "begin_time": "2026-07-15T09:06:41.052632+00:00", "end_time": "2026-07-15T09:06:47.052632+00:00"}}, {"type": "Feature", "geometry": {"type": "Point", "coordinates": [76.410141, 10.362033]}, "properties": {"vehicle_id": "FMCG-Truck-01", "vehicle_type": "FMCG Logistics Truck", "network_mode": "LTE/5G", "scenario_stage": 5, "stage_label": "Reroute Executed", "begin_time": "2026-07-15T09:06:47.368421+00:00", "end_time": "2026-07-15T09:06:53.368421+00:00"}}, {"type": "Feature", "geometry": {"type": "Point", "coordinates": [76.395786, 10.369967]}, "properties": {"vehicle_id": "FMCG-Truck-01", "vehicle_type": "FMCG Logistics Truck", "network_mode": "LTE/5G", "scenario_stage": 5, "stage_label": "Reroute Executed", "begin_time": "2026-07-15T09:06:53.684211+00:00", "end_time": "2026-07-15T09:06:59.684211+00:00"}}, {"type": "Feature", "geometry": {"type": "Point", "coordinates": [76.390489, 10.379903]}, "properties": {"vehicle_id": "FMCG-Truck-01", "vehicle_type": "FMCG Logistics Truck", "network_mode": "LTE/5G", "scenario_stage": 5, "stage_label": "Reroute Executed", "begin_time": "2026-07-15T09:07:00+00:00", "end_time": "2026-07-15T09:07:06+00:00"}}, {"type": "Feature", "geometry": {"type": "Point", "coordinates": [76.344542, 10.276554]}, "properties": {"vehicle_id": "Fleeing-Vehicle-02", "vehicle_type": "Civilian Vehicle (Fleeing)", "network_mode": "LTE/5G", "scenario_stage": 2, "stage_label": "Cloudburst Detected", "begin_time": "2026-07-15T09:02:00+00:00", "end_time": "2026-07-15T09:02:03+00:00"}}, {"type": "Feature", "geometry": {"type": "Point", "coordinates": [76.344009, 10.280713]}, "properties": {"vehicle_id": "Fleeing-Vehicle-02", "vehicle_type": "Civilian Vehicle (Fleeing)", "network_mode": "LTE/5G", "scenario_stage": 2, "stage_label": "Cloudburst Detected", "begin_time": "2026-07-15T09:02:03.157895+00:00", "end_time": "2026-07-15T09:02:06.157895+00:00"}}, {"type": "Feature", "geometry": {"type": "Point", "coordinates": [76.342959, 10.283739]}, "properties": {"vehicle_id": "Fleeing-Vehicle-02", "vehicle_type": "Civilian Vehicle (Fleeing)", "network_mode": "LTE/5G", "scenario_stage": 2, "stage_label": "Cloudburst Detected", "begin_time": "2026-07-15T09:02:06.315789+00:00", "end_time": "2026-07-15T09:02:09.315789+00:00"}}, {"type": "Feature", "geometry": {"type": "Point", "coordinates": [76.34214, 10.285461]}, "properties": {"vehicle_id": "Fleeing-Vehicle-02", "vehicle_type": "Civilian Vehicle (Fleeing)", "network_mode": "LTE/5G", "scenario_stage": 2, "stage_label": "Cloudburst Detected", "begin_time": "2026-07-15T09:02:09.473684+00:00", "end_time": "2026-07-15T09:02:12.473684+00:00"}}, {"type": "Feature", "geometry": {"type": "Point", "coordinates": [76.341023, 10.286815]}, "properties": {"vehicle_id": "Fleeing-Vehicle-02", "vehicle_type": "Civilian Vehicle (Fleeing)", "network_mode": "LTE/5G", "scenario_stage": 2, "stage_label": "Cloudburst Detected", "begin_time": "2026-07-15T09:02:12.631579+00:00", "end_time": "2026-07-15T09:02:15.631579+00:00"}}, {"type": "Feature", "geometry": {"type": "Point", "coordinates": [76.340375, 10.287289]}, "properties": {"vehicle_id": "Fleeing-Vehicle-02", "vehicle_type": "Civilian Vehicle (Fleeing)", "network_mode": "LTE/5G", "scenario_stage": 2, "stage_label": "Cloudburst Detected", "begin_time": "2026-07-15T09:02:15.789474+00:00", "end_time": "2026-07-15T09:02:18.789474+00:00"}}, {"type": "Feature", "geometry": {"type": "Point", "coordinates": [76.339226, 10.28784]}, "properties": {"vehicle_id": "Fleeing-Vehicle-02", "vehicle_type": "Civilian Vehicle (Fleeing)", "network_mode": "LTE/5G", "scenario_stage": 2, "stage_label": "Cloudburst Detected", "begin_time": "2026-07-15T09:02:18.947368+00:00", "end_time": "2026-07-15T09:02:21.947368+00:00"}}, {"type": "Feature", "geometry": {"type": "Point", "coordinates": [76.337866, 10.288463]}, "properties": {"vehicle_id": "Fleeing-Vehicle-02", "vehicle_type": "Civilian Vehicle (Fleeing)", "network_mode": "LTE/5G", "scenario_stage": 2, "stage_label": "Cloudburst Detected", "begin_time": "2026-07-15T09:02:22.105263+00:00", "end_time": "2026-07-15T09:02:25.105263+00:00"}}, {"type": "Feature", "geometry": {"type": "Point", "coordinates": [76.336703, 10.28926]}, "properties": {"vehicle_id": "Fleeing-Vehicle-02", "vehicle_type": "Civilian Vehicle (Fleeing)", "network_mode": "LTE/5G", "scenario_stage": 2, "stage_label": "Cloudburst Detected", "begin_time": "2026-07-15T09:02:25.263158+00:00", "end_time": "2026-07-15T09:02:28.263158+00:00"}}, {"type": "Feature", "geometry": {"type": "Point", "coordinates": [76.335945, 10.290515]}, "properties": {"vehicle_id": "Fleeing-Vehicle-02", "vehicle_type": "Civilian Vehicle (Fleeing)", "network_mode": "LTE/5G", "scenario_stage": 2, "stage_label": "Cloudburst Detected", "begin_time": "2026-07-15T09:02:28.421053+00:00", "end_time": "2026-07-15T09:02:31.421053+00:00"}}, {"type": "Feature", "geometry": {"type": "Point", "coordinates": [76.335686, 10.291827]}, "properties": {"vehicle_id": "Fleeing-Vehicle-02", "vehicle_type": "Civilian Vehicle (Fleeing)", "network_mode": "LTE/5G", "scenario_stage": 2, "stage_label": "Cloudburst Detected", "begin_time": "2026-07-15T09:02:31.578947+00:00", "end_time": "2026-07-15T09:02:34.578947+00:00"}}, {"type": "Feature", "geometry": {"type": "Point", "coordinates": [76.335817, 10.292925]}, "properties": {"vehicle_id": "Fleeing-Vehicle-02", "vehicle_type": "Civilian Vehicle (Fleeing)", "network_mode": "LTE/5G", "scenario_stage": 2, "stage_label": "Cloudburst Detected", "begin_time": "2026-07-15T09:02:34.736842+00:00", "end_time": "2026-07-15T09:02:37.736842+00:00"}}, {"type": "Feature", "geometry": {"type": "Point", "coordinates": [76.336914, 10.295723]}, "properties": {"vehicle_id": "Fleeing-Vehicle-02", "vehicle_type": "Civilian Vehicle (Fleeing)", "network_mode": "LTE/5G", "scenario_stage": 2, "stage_label": "Cloudburst Detected", "begin_time": "2026-07-15T09:02:37.894737+00:00", "end_time": "2026-07-15T09:02:40.894737+00:00"}}, {"type": "Feature", "geometry": {"type": "Point", "coordinates": [76.337126, 10.297264]}, "properties": {"vehicle_id": "Fleeing-Vehicle-02", "vehicle_type": "Civilian Vehicle (Fleeing)", "network_mode": "LTE/5G", "scenario_stage": 2, "stage_label": "Cloudburst Detected", "begin_time": "2026-07-15T09:02:41.052632+00:00", "end_time": "2026-07-15T09:02:44.052632+00:00"}}, {"type": "Feature", "geometry": {"type": "Point", "coordinates": [76.336972, 10.299158]}, "properties": {"vehicle_id": "Fleeing-Vehicle-02", "vehicle_type": "Civilian Vehicle (Fleeing)", "network_mode": "LTE/5G", "scenario_stage": 2, "stage_label": "Cloudburst Detected", "begin_time": "2026-07-15T09:02:44.210526+00:00", "end_time": "2026-07-15T09:02:47.210526+00:00"}}, {"type": "Feature", "geometry": {"type": "Point", "coordinates": [76.336974, 10.30064]}, "properties": {"vehicle_id": "Fleeing-Vehicle-02", "vehicle_type": "Civilian Vehicle (Fleeing)", "network_mode": "LTE/5G", "scenario_stage": 2, "stage_label": "Cloudburst Detected", "begin_time": "2026-07-15T09:02:47.368421+00:00", "end_time": "2026-07-15T09:02:50.368421+00:00"}}, {"type": "Feature", "geometry": {"type": "Point", "coordinates": [76.336744, 10.301833]}, "properties": {"vehicle_id": "Fleeing-Vehicle-02", "vehicle_type": "Civilian Vehicle (Fleeing)", "network_mode": "LTE/5G", "scenario_stage": 2, "stage_label": "Cloudburst Detected", "begin_time": "2026-07-15T09:02:50.526316+00:00", "end_time": "2026-07-15T09:02:53.526316+00:00"}}, {"type": "Feature", "geometry": {"type": "Point", "coordinates": [76.335678, 10.303956]}, "properties": {"vehicle_id": "Fleeing-Vehicle-02", "vehicle_type": "Civilian Vehicle (Fleeing)", "network_mode": "LTE/5G", "scenario_stage": 2, "stage_label": "Cloudburst Detected", "begin_time": "2026-07-15T09:02:53.684211+00:00", "end_time": "2026-07-15T09:02:56.684211+00:00"}}, {"type": "Feature", "geometry": {"type": "Point", "coordinates": [76.333923, 10.306931]}, "properties": {"vehicle_id": "Fleeing-Vehicle-02", "vehicle_type": "Civilian Vehicle (Fleeing)", "network_mode": "LTE/5G", "scenario_stage": 2, "stage_label": "Cloudburst Detected", "begin_time": "2026-07-15T09:02:56.842105+00:00", "end_time": "2026-07-15T09:02:59.842105+00:00"}}, {"type": "Feature", "geometry": {"type": "Point", "coordinates": [76.333641, 10.309485]}, "properties": {"vehicle_id": "Fleeing-Vehicle-02", "vehicle_type": "Civilian Vehicle (Fleeing)", "network_mode": "LTE/5G", "scenario_stage": 2, "stage_label": "Cloudburst Detected", "begin_time": "2026-07-15T09:03:00+00:00", "end_time": "2026-07-15T09:03:03+00:00"}}, {"type": "Feature", "geometry": {"type": "Point", "coordinates": [76.344542, 10.276554]}, "properties": {"vehicle_id": "Fleeing-Vehicle-02", "vehicle_type": "Civilian Vehicle (Fleeing)", "network_mode": "VDTN", "scenario_stage": 3, "stage_label": "Cellular Failure / VDTN", "begin_time": "2026-07-15T09:03:00+00:00", "end_time": "2026-07-15T09:03:03+00:00"}}, {"type": "Feature", "geometry": {"type": "Point", "coordinates": [76.344029, 10.280057]}, "properties": {"vehicle_id": "Fleeing-Vehicle-02", "vehicle_type": "Civilian Vehicle (Fleeing)", "network_mode": "VDTN", "scenario_stage": 3, "stage_label": "Cellular Failure / VDTN", "begin_time": "2026-07-15T09:03:03.157895+00:00", "end_time": "2026-07-15T09:03:06.157895+00:00"}}, {"type": "Feature", "geometry": {"type": "Point", "coordinates": [76.343746, 10.281972]}, "properties": {"vehicle_id": "Fleeing-Vehicle-02", "vehicle_type": "Civilian Vehicle (Fleeing)", "network_mode": "VDTN", "scenario_stage": 3, "stage_label": "Cellular Failure / VDTN", "begin_time": "2026-07-15T09:03:06.315789+00:00", "end_time": "2026-07-15T09:03:09.315789+00:00"}}, {"type": "Feature", "geometry": {"type": "Point", "coordinates": [76.342764, 10.284159]}, "properties": {"vehicle_id": "Fleeing-Vehicle-02", "vehicle_type": "Civilian Vehicle (Fleeing)", "network_mode": "VDTN", "scenario_stage": 3, "stage_label": "Cellular Failure / VDTN", "begin_time": "2026-07-15T09:03:09.473684+00:00", "end_time": "2026-07-15T09:03:12.473684+00:00"}}, {"type": "Feature", "geometry": {"type": "Point", "coordinates": [76.341972, 10.285744]}, "properties": {"vehicle_id": "Fleeing-Vehicle-02", "vehicle_type": "Civilian Vehicle (Fleeing)", "network_mode": "VDTN", "scenario_stage": 3, "stage_label": "Cellular Failure / VDTN", "begin_time": "2026-07-15T09:03:12.631579+00:00", "end_time": "2026-07-15T09:03:15.631579+00:00"}}, {"type": "Feature", "geometry": {"type": "Point", "coordinates": [76.341191, 10.286664]}, "properties": {"vehicle_id": "Fleeing-Vehicle-02", "vehicle_type": "Civilian Vehicle (Fleeing)", "network_mode": "VDTN", "scenario_stage": 3, "stage_label": "Cellular Failure / VDTN", "begin_time": "2026-07-15T09:03:15.789474+00:00", "end_time": "2026-07-15T09:03:18.789474+00:00"}}, {"type": "Feature", "geometry": {"type": "Point", "coordinates": [76.340578, 10.287155]}, "properties": {"vehicle_id": "Fleeing-Vehicle-02", "vehicle_type": "Civilian Vehicle (Fleeing)", "network_mode": "VDTN", "scenario_stage": 3, "stage_label": "Cellular Failure / VDTN", "begin_time": "2026-07-15T09:03:18.947368+00:00", "end_time": "2026-07-15T09:03:21.947368+00:00"}}, {"type": "Feature", "geometry": {"type": "Point", "coordinates": [76.34012, 10.287427]}, "properties": {"vehicle_id": "Fleeing-Vehicle-02", "vehicle_type": "Civilian Vehicle (Fleeing)", "network_mode": "VDTN", "scenario_stage": 3, "stage_label": "Cellular Failure / VDTN", "begin_time": "2026-07-15T09:03:22.105263+00:00", "end_time": "2026-07-15T09:03:25.105263+00:00"}}, {"type": "Feature", "geometry": {"type": "Point", "coordinates": [76.338903, 10.287988]}, "properties": {"vehicle_id": "Fleeing-Vehicle-02", "vehicle_type": "Civilian Vehicle (Fleeing)", "network_mode": "VDTN", "scenario_stage": 3, "stage_label": "Cellular Failure / VDTN", "begin_time": "2026-07-15T09:03:25.263158+00:00", "end_time": "2026-07-15T09:03:28.263158+00:00"}}, {"type": "Feature", "geometry": {"type": "Point", "coordinates": [76.337866, 10.288463]}, "properties": {"vehicle_id": "Fleeing-Vehicle-02", "vehicle_type": "Civilian Vehicle (Fleeing)", "network_mode": "VDTN", "scenario_stage": 3, "stage_label": "Cellular Failure / VDTN", "begin_time": "2026-07-15T09:03:28.421053+00:00", "end_time": "2026-07-15T09:03:31.421053+00:00"}}, {"type": "Feature", "geometry": {"type": "Point", "coordinates": [76.336992, 10.288988]}, "properties": {"vehicle_id": "Fleeing-Vehicle-02", "vehicle_type": "Civilian Vehicle (Fleeing)", "network_mode": "VDTN", "scenario_stage": 3, "stage_label": "Cellular Failure / VDTN", "begin_time": "2026-07-15T09:03:31.578947+00:00", "end_time": "2026-07-15T09:03:34.578947+00:00"}}, {"type": "Feature", "geometry": {"type": "Point", "coordinates": [76.336158, 10.289984]}, "properties": {"vehicle_id": "Fleeing-Vehicle-02", "vehicle_type": "Civilian Vehicle (Fleeing)", "network_mode": "VDTN", "scenario_stage": 3, "stage_label": "Cellular Failure / VDTN", "begin_time": "2026-07-15T09:03:34.736842+00:00", "end_time": "2026-07-15T09:03:37.736842+00:00"}}, {"type": "Feature", "geometry": {"type": "Point", "coordinates": [76.335866, 10.290777]}, "properties": {"vehicle_id": "Fleeing-Vehicle-02", "vehicle_type": "Civilian Vehicle (Fleeing)", "network_mode": "VDTN", "scenario_stage": 3, "stage_label": "Cellular Failure / VDTN", "begin_time": "2026-07-15T09:03:37.894737+00:00", "end_time": "2026-07-15T09:03:40.894737+00:00"}}, {"type": "Feature", "geometry": {"type": "Point", "coordinates": [76.335686, 10.291827]}, "properties": {"vehicle_id": "Fleeing-Vehicle-02", "vehicle_type": "Civilian Vehicle (Fleeing)", "network_mode": "VDTN", "scenario_stage": 3, "stage_label": "Cellular Failure / VDTN", "begin_time": "2026-07-15T09:03:41.052632+00:00", "end_time": "2026-07-15T09:03:44.052632+00:00"}}, {"type": "Feature", "geometry": {"type": "Point", "coordinates": [76.335782, 10.292792]}, "properties": {"vehicle_id": "Fleeing-Vehicle-02", "vehicle_type": "Civilian Vehicle (Fleeing)", "network_mode": "VDTN", "scenario_stage": 3, "stage_label": "Cellular Failure / VDTN", "begin_time": "2026-07-15T09:03:44.210526+00:00", "end_time": "2026-07-15T09:03:47.210526+00:00"}}, {"type": "Feature", "geometry": {"type": "Point", "coordinates": [76.336087, 10.293719]}, "properties": {"vehicle_id": "Fleeing-Vehicle-02", "vehicle_type": "Civilian Vehicle (Fleeing)", "network_mode": "VDTN", "scenario_stage": 3, "stage_label": "Cellular Failure / VDTN", "begin_time": "2026-07-15T09:03:47.368421+00:00", "end_time": "2026-07-15T09:03:50.368421+00:00"}}, {"type": "Feature", "geometry": {"type": "Point", "coordinates": [76.337073, 10.296328]}, "properties": {"vehicle_id": "Fleeing-Vehicle-02", "vehicle_type": "Civilian Vehicle (Fleeing)", "network_mode": "VDTN", "scenario_stage": 3, "stage_label": "Cellular Failure / VDTN", "begin_time": "2026-07-15T09:03:50.526316+00:00", "end_time": "2026-07-15T09:03:53.526316+00:00"}}, {"type": "Feature", "geometry": {"type": "Point", "coordinates": [76.33711, 10.297515]}, "properties": {"vehicle_id": "Fleeing-Vehicle-02", "vehicle_type": "Civilian Vehicle (Fleeing)", "network_mode": "VDTN", "scenario_stage": 3, "stage_label": "Cellular Failure / VDTN", "begin_time": "2026-07-15T09:03:53.684211+00:00", "end_time": "2026-07-15T09:03:56.684211+00:00"}}, {"type": "Feature", "geometry": {"type": "Point", "coordinates": [76.336982, 10.298983]}, "properties": {"vehicle_id": "Fleeing-Vehicle-02", "vehicle_type": "Civilian Vehicle (Fleeing)", "network_mode": "VDTN", "scenario_stage": 3, "stage_label": "Cellular Failure / VDTN", "begin_time": "2026-07-15T09:03:56.842105+00:00", "end_time": "2026-07-15T09:03:59.842105+00:00"}}, {"type": "Feature", "geometry": {"type": "Point", "coordinates": [76.336976, 10.300426]}, "properties": {"vehicle_id": "Fleeing-Vehicle-02", "vehicle_type": "Civilian Vehicle (Fleeing)", "network_mode": "VDTN", "scenario_stage": 3, "stage_label": "Cellular Failure / VDTN", "begin_time": "2026-07-15T09:04:00+00:00", "end_time": "2026-07-15T09:04:03+00:00"}}, {"type": "Feature", "geometry": {"type": "Point", "coordinates": [76.344542, 10.276554]}, "properties": {"vehicle_id": "Fleeing-Vehicle-02", "vehicle_type": "Civilian Vehicle (Fleeing)", "network_mode": "VDTN", "scenario_stage": 4, "stage_label": "Hazard Confirmed Critical", "begin_time": "2026-07-15T09:04:00+00:00", "end_time": "2026-07-15T09:04:03+00:00"}}, {"type": "Feature", "geometry": {"type": "Point", "coordinates": [76.344062, 10.278056]}, "properties": {"vehicle_id": "Fleeing-Vehicle-02", "vehicle_type": "Civilian Vehicle (Fleeing)", "network_mode": "VDTN", "scenario_stage": 4, "stage_label": "Hazard Confirmed Critical", "begin_time": "2026-07-15T09:04:03.157895+00:00", "end_time": "2026-07-15T09:04:06.157895+00:00"}}, {"type": "Feature", "geometry": {"type": "Point", "coordinates": [76.343985, 10.280937]}, "properties": {"vehicle_id": "Fleeing-Vehicle-02", "vehicle_type": "Civilian Vehicle (Fleeing)", "network_mode": "VDTN", "scenario_stage": 4, "stage_label": "Hazard Confirmed Critical", "begin_time": "2026-07-15T09:04:06.315789+00:00", "end_time": "2026-07-15T09:04:09.315789+00:00"}}, {"type": "Feature", "geometry": {"type": "Point", "coordinates": [76.34366, 10.282222]}, "properties": {"vehicle_id": "Fleeing-Vehicle-02", "vehicle_type": "Civilian Vehicle (Fleeing)", "network_mode": "VDTN", "scenario_stage": 4, "stage_label": "Hazard Confirmed Critical", "begin_time": "2026-07-15T09:04:09.473684+00:00", "end_time": "2026-07-15T09:04:12.473684+00:00"}}, {"type": "Feature", "geometry": {"type": "Point", "coordinates": [76.342871, 10.283934]}, "properties": {"vehicle_id": "Fleeing-Vehicle-02", "vehicle_type": "Civilian Vehicle (Fleeing)", "network_mode": "VDTN", "scenario_stage": 4, "stage_label": "Hazard Confirmed Critical", "begin_time": "2026-07-15T09:04:12.631579+00:00", "end_time": "2026-07-15T09:04:15.631579+00:00"}}, {"type": "Feature", "geometry": {"type": "Point", "coordinates": [76.342347, 10.285033]}, "properties": {"vehicle_id": "Fleeing-Vehicle-02", "vehicle_type": "Civilian Vehicle (Fleeing)", "network_mode": "VDTN", "scenario_stage": 4, "stage_label": "Hazard Confirmed Critical", "begin_time": "2026-07-15T09:04:15.789474+00:00", "end_time": "2026-07-15T09:04:18.789474+00:00"}}, {"type": "Feature", "geometry": {"type": "Point", "coordinates": [76.341578, 10.286276]}, "properties": {"vehicle_id": "Fleeing-Vehicle-02", "vehicle_type": "Civilian Vehicle (Fleeing)", "network_mode": "VDTN", "scenario_stage": 4, "stage_label": "Hazard Confirmed Critical", "begin_time": "2026-07-15T09:04:18.947368+00:00", "end_time": "2026-07-15T09:04:21.947368+00:00"}}, {"type": "Feature", "geometry": {"type": "Point", "coordinates": [76.341191, 10.286664]}, "properties": {"vehicle_id": "Fleeing-Vehicle-02", "vehicle_type": "Civilian Vehicle (Fleeing)", "network_mode": "VDTN", "scenario_stage": 4, "stage_label": "Hazard Confirmed Critical", "begin_time": "2026-07-15T09:04:22.105263+00:00", "end_time": "2026-07-15T09:04:25.105263+00:00"}}, {"type": "Feature", "geometry": {"type": "Point", "coordinates": [76.340779, 10.287011]}, "properties": {"vehicle_id": "Fleeing-Vehicle-02", "vehicle_type": "Civilian Vehicle (Fleeing)", "network_mode": "VDTN", "scenario_stage": 4, "stage_label": "Hazard Confirmed Critical", "begin_time": "2026-07-15T09:04:25.263158+00:00", "end_time": "2026-07-15T09:04:28.263158+00:00"}}, {"type": "Feature", "geometry": {"type": "Point", "coordinates": [76.340439, 10.287254]}, "properties": {"vehicle_id": "Fleeing-Vehicle-02", "vehicle_type": "Civilian Vehicle (Fleeing)", "network_mode": "VDTN", "scenario_stage": 4, "stage_label": "Hazard Confirmed Critical", "begin_time": "2026-07-15T09:04:28.421053+00:00", "end_time": "2026-07-15T09:04:31.421053+00:00"}}, {"type": "Feature", "geometry": {"type": "Point", "coordinates": [76.34006, 10.287458]}, "properties": {"vehicle_id": "Fleeing-Vehicle-02", "vehicle_type": "Civilian Vehicle (Fleeing)", "network_mode": "VDTN", "scenario_stage": 4, "stage_label": "Hazard Confirmed Critical", "begin_time": "2026-07-15T09:04:31.578947+00:00", "end_time": "2026-07-15T09:04:34.578947+00:00"}}, {"type": "Feature", "geometry": {"type": "Point", "coordinates": [76.339226, 10.28784]}, "properties": {"vehicle_id": "Fleeing-Vehicle-02", "vehicle_type": "Civilian Vehicle (Fleeing)", "network_mode": "VDTN", "scenario_stage": 4, "stage_label": "Hazard Confirmed Critical", "begin_time": "2026-07-15T09:04:34.736842+00:00", "end_time": "2026-07-15T09:04:37.736842+00:00"}}, {"type": "Feature", "geometry": {"type": "Point", "coordinates": [76.338342, 10.288245]}, "properties": {"vehicle_id": "Fleeing-Vehicle-02", "vehicle_type": "Civilian Vehicle (Fleeing)", "network_mode": "VDTN", "scenario_stage": 4, "stage_label": "Hazard Confirmed Critical", "begin_time": "2026-07-15T09:04:37.894737+00:00", "end_time": "2026-07-15T09:04:40.894737+00:00"}}, {"type": "Feature", "geometry": {"type": "Point", "coordinates": [76.337766, 10.288514]}, "properties": {"vehicle_id": "Fleeing-Vehicle-02", "vehicle_type": "Civilian Vehicle (Fleeing)", "network_mode": "VDTN", "scenario_stage": 4, "stage_label": "Hazard Confirmed Critical", "begin_time": "2026-07-15T09:04:41.052632+00:00", "end_time": "2026-07-15T09:04:44.052632+00:00"}}, {"type": "Feature", "geometry": {"type": "Point", "coordinates": [76.337202, 10.28884]}, "properties": {"vehicle_id": "Fleeing-Vehicle-02", "vehicle_type": "Civilian Vehicle (Fleeing)", "network_mode": "VDTN", "scenario_stage": 4, "stage_label": "Hazard Confirmed Critical", "begin_time": "2026-07-15T09:04:44.210526+00:00", "end_time": "2026-07-15T09:04:47.210526+00:00"}}, {"type": "Feature", "geometry": {"type": "Point", "coordinates": [76.336442, 10.28955]}, "properties": {"vehicle_id": "Fleeing-Vehicle-02", "vehicle_type": "Civilian Vehicle (Fleeing)", "network_mode": "VDTN", "scenario_stage": 4, "stage_label": "Hazard Confirmed Critical", "begin_time": "2026-07-15T09:04:47.368421+00:00", "end_time": "2026-07-15T09:04:50.368421+00:00"}}, {"type": "Feature", "geometry": {"type": "Point", "coordinates": [76.336031, 10.290267]}, "properties": {"vehicle_id": "Fleeing-Vehicle-02", "vehicle_type": "Civilian Vehicle (Fleeing)", "network_mode": "VDTN", "scenario_stage": 4, "stage_label": "Hazard Confirmed Critical", "begin_time": "2026-07-15T09:04:50.526316+00:00", "end_time": "2026-07-15T09:04:53.526316+00:00"}}, {"type": "Feature", "geometry": {"type": "Point", "coordinates": [76.335866, 10.290777]}, "properties": {"vehicle_id": "Fleeing-Vehicle-02", "vehicle_type": "Civilian Vehicle (Fleeing)", "network_mode": "VDTN", "scenario_stage": 4, "stage_label": "Hazard Confirmed Critical", "begin_time": "2026-07-15T09:04:53.684211+00:00", "end_time": "2026-07-15T09:04:56.684211+00:00"}}, {"type": "Feature", "geometry": {"type": "Point", "coordinates": [76.335701, 10.291561]}, "properties": {"vehicle_id": "Fleeing-Vehicle-02", "vehicle_type": "Civilian Vehicle (Fleeing)", "network_mode": "VDTN", "scenario_stage": 4, "stage_label": "Hazard Confirmed Critical", "begin_time": "2026-07-15T09:04:56.842105+00:00", "end_time": "2026-07-15T09:04:59.842105+00:00"}}, {"type": "Feature", "geometry": {"type": "Point", "coordinates": [76.335705, 10.292297]}, "properties": {"vehicle_id": "Fleeing-Vehicle-02", "vehicle_type": "Civilian Vehicle (Fleeing)", "network_mode": "VDTN", "scenario_stage": 4, "stage_label": "Hazard Confirmed Critical", "begin_time": "2026-07-15T09:05:00+00:00", "end_time": "2026-07-15T09:05:03+00:00"}}]}